School Name,Address,Telephone,long,lat
565 Academy,"3700 Dorr St, Toledo, OH 43606",(419) 535-0060,-83.63155909999999,41.6536569
A Family of Faith Homeschool,"7179 Galena Ave, NW, Canal Fulton, OH 44614",(248) 224-6996,-81.53028599999999,40.8863049
A World of Learning Academy,"8888 Shepard Road, Macedonia, OH 44056",(412) 329-8887,-81.48966070000002,41.3168571
Absorbent Minds Montessori School - Tallmadge,"PO Box 209, Cuyahoga Falls, OH 44221",(330) 633-8299,-81.4828198,41.1362185
Academy of the Immaculate Heart of Mary,"2935 Chenoweth Road, Akron, OH 44312",(330) 644-3526,-81.4884598,40.9887
Acumen Academy,"19516 Overland Park Dr, Strongsville, OH 44149",(440) 572-3427,-81.84064389999999,41.3091104
Ada Christian Academy,"4073 State Route 309, Ada, OH 45810",(419) 634-9929,-83.803246,40.733375
Agape Christian Academy,"14220 Claridon Troy Rd, Burton, OH 44021",(440) 834-8022,-81.1458481,41.4816803
Agnus Dei Academy,"3292 Driftwood Road, Norton, OH 44203",(330) 825-7497,-81.6451826,41.0446539
AJP Academy,"4540 Korner Drive, Huber Heights, OH 45424",(513) 331-0231,-84.1309186,39.8269343
Akron First Academy and Preschool,"1175 West Market Street, Akron, OH 44313",(330) 836-1436,-81.55251489999999,41.1021706
Aletheia Academy,"1526 Bass Wood Drive, Uniontown, OH 44685",(732) 500-2483,-81.4785519,40.9500644
Alethia Academy,"393 Madison Ave, Marion, OH 43302",(740) 396-4039,-83.0981463,40.5958439
All Saints Academy,"4400 Lustig Rd, Dalton, OH 44618",,-81.67660599999999,40.746014
All Saints Catholic School,"3810 Autumn Drive, Huron, OH 44839",(419) 626-4383,-82.644525,41.4094793
Allen-James Academy,"6230 Raspberry Court, Clayton, OH 45315",(937) 838-1298,-84.3145311,39.83871680000001
Anchored Hope Christian Academy,"3578 Rosslare Harbour Drive, Pickerington, OH 43147",(614) 584-6253,-82.8016042,39.9099192
Antiquity Academy,"6216 State Route 521, Sunbury, OH 43074",(740) 524-2112,-82.94963059999999,40.327771
Apostolic Christian Academy,"5701 Sylvania Avenue, Toledo, OH 43623",(419) 855-5334,-83.68093089999999,41.6905532
Aptamus Usquam Discere Academy,"3169 Goda Avenue, Cincinnati, OH 45211",(513) 205-9762,-84.5996335,39.1665474
Aquila Academy,"1095 Westchester Ave, Napoleon, OH 43545",(214) 938-1984,-84.14347240000001,41.38963460000001
Arete Academy,"1366 Harold Stewart Parkways, Pataskala, OH 43062",(740) 303-2738,-82.6567414,40.0082186
As We Walk Academy,"39585 Calann Drive, Elyria, OH 44035",(440) 452-9803,-82.0899692,41.3506642
Ashley's Adventist Academy,"1079 Township Road 266, Kitts Hill, OH 45645",(740) 646-8027,-82.5519977,38.5150499
Ave Maria School,"383 Township Road 376, Toronto, OH 43964",(740) 317-4069,-80.6393035,40.4537062
Avicenna Preparatory School,"2712 Sawbury Blvd, Columbus, OH 43235",(614) 374-2184,-83.0876959,40.115115
Avon Montessori Academy,"37701 Colorado Ave, Suite C, Avon, OH 44011",(440) 934-1774,-82.0421563,41.45785
Ball Home School,"15956 North Liberty Rd, Mount Vernon, OH 43050",(740) 398-4992,-82.444745,40.4645269
Banah Academy,"7422 Clancy Way, Westerville, OH 43082",(614) 795-4484,-82.9024776,40.1580862
Bell Academy,"1048 Cloverfield Lane, Cincinnati, OH 45224",(513) 673-1370,-84.5274206,39.2084451
Bellwood World Academy,"3102 Mapleleaf Avenue, Cincinnati, OH 45213",(513) 666-7622,-84.4303491,39.1747531
Belpre Christian Academy,"P.O. Box 151, Belpre, OH 45714",(740) 423-7741,-81.5729029,39.27396390000001
Berean Academy,"2127 Sumac Loop North, Columbus, OH 43229",(614) 794-2581,-82.960566,40.0809826
Bethel Baptist School,"434 Wilson Park Drive, West Carrollton, OH 45449",(937) 859-4713,-84.2577813,39.6561722
Bethel Christian School,"3499 State Route 103, Bluffton, OH 45817",(419) 701-4178,-83.8145258,40.8908364
Bible Believers Christian School,"3500 Spencerville Road, Lima, OH 45805",(419) 999-5517,-84.1691118,40.723314
Big Oak Academy,"16354 State Route 694, Ottawa, OH 45875",(419) 532-2733,-84.176019,41.028973
Blumfeldt Academy,"9385 Reed Road, North Ridgeville, OH 44039",(440) 748-4929,-81.990402,41.3548917
Bogart Academy,"12372 Fite-Hauck Road, Sardinia, OH 45171",(937) 446-3995,-83.7851396,38.9778016
Bolser Family Academy,"6500 Hunting Creek Drive, Liberty Township, OH 45044",(513) 805-2832,-84.4038265,39.3931693
Bremen Holiness School,"1300 Mt. Zwingli Road, Bremen, OH 43107",(614) 569-4770,-82.44383599999999,39.697911
Bridges Academy,"846 County Road 24, Ironton, OH 45368",(740) 237-2173,-82.6489139,38.5115473
Broadview Classical Academy,"4300 Meadow Gateway, Broadview Heights, OH 44147",(440) 526-8021,-81.656117,41.3275876
Brown County Christian Academy,"P.O. Box 48 116 College Ave, Sardinia, OH 45171",(937) 446-1220,-83.8110856,39.0089141
Building On the Rock Academy,"6736 County Road 10, Jenera, OH 45841",(419) 326-6184,-83.7522439,40.8191015
Bush World Changers Academy,"263 International Drive, Pataskala, OH 43062",(614) 361-7238,-82.66747910000001,40.0022203
"Calvary Academy, The","11970 Kenn Road, Cincinnati, OH 45240",(513) 674-9600,-84.50120849999999,39.2985863
Calvary Christian School,"1140 Rush Avenue, Bellefontaine, OH 43311",(937) 599-6847,-83.7518681,40.3749299
Candeo Christian Academy,"2058 Yankeetown Road, Hamersville, OH 45130",(937) 379-1482,-83.9745986,38.9316887
Carpe Diem Educational Services,"1909 Robert Ave, Fremont, OH 43420",(419) 332-2744,-83.12791519999999,41.3187877
Carroll County Christian Academy,"1211 Lincoln Avenue NW, Carrollton, OH 44615",(330) 627-5124,-81.0872364,40.5902913
Carson Academy of Excellence,"6380 Greenridge Avenue, New Carlisle, OH 45344",(937) 371-2660,-83.9207242,39.9501924
Cedarview Christian Academy,"18520 Main Street, Middleburg Heights, OH 44130",(440) 239-1530,-81.83150859999999,41.3512412
Chapel Hill Christian Academy,"7530 Johnstown Road, Mount Vernon, OH 43050",(740) 393-1613,-82.54872259999999,40.3486286
CHESS Christian School,"9302 Maxwell's Crossing, Centerville, OH 45458",(937) 343-1130,-84.15406589999999,39.5978465
Christ Academy,"549 Creek Road, Clarksville, OH 45113",(330) 204-6330,-83.9501555,39.4296778
Christ the King Academy,"4919 Old Springfield Road, Vandalia, OH 44460",(316) 200-1039,-84.1814065,39.9140463
Christ the King Catholic Academy,"6250 State Street, Louisville, OH 44641",(330) 875-4091,-81.2803558,40.9027969
Christian Academy,"PO Box 435, Marysville, OH 43040",(937) 644-0911,-83.3671432,40.2364486
Christian Academy of Excellence,"344 Trumbull Ave S.E., Warren, OH 44483",(330) 651-4393,-80.7816404,41.2338113
Christian Community School,"35716 Royalton Road, North Eaton, OH 44044",(440) 749-6224,-82.0144095,41.3147326
Christian Faith Academy,"4322 Park Avenue, Ashtabula, OH 44005",(440) 998-3887,-80.78253099999999,41.8681616
Christian Legacy Academy,"1398 Sullivan Rd, Sabina, OH 45169",(937) 486-5801,-83.73803099999999,39.54076
Christian Life Academy,"8877 Avon Belden Road, North Ridgeville, OH 44039",(440) 353-0758,-82.018362,41.36409750000001
Christian Life Church Academy,"425 North Spring Road, Westerville, OH 43082",(614) 794-1830,-82.90300309999999,40.1362905
Christifideles School,"745 Union Station Road, Granville, OH 43023",(614) 267-4072,-82.5227693,40.0210859
Christ's Church Academy,"1440 Ridge Rd NE, Lancaster, OH 43130",(740) 687-0254,-82.5711173,39.739982
Chros,"9001 State Route 43, Streetsboro, OH 44241",(330) 626-3446,-81.3461064,41.2358616
City on a Hill Academy,"1021 Thunderbird Ave, Cincinnati, OH 45231",(502) 889-9602,-84.5228461,39.2204803
"Classical Academy, The","18567 State Road, North Royalton, OH 44133",(440) 628-8023,-81.7229645,41.2857139
Community Christian Academy,"303 W. Fourth Street, Genoa, OH 43430",(419) 855-4187,-83.3621593,41.5149361
Community Montessori School,"9035 Cincinnati Dayton Road, West Chester, OH 45069",(513) 777-0808,-84.4106766,39.3268267
Conroy Academy,"5532 Corwin Rd, Waynesville, OH 45068",(513) 897-3128,-84.093262,39.5131325
Corinthian Christian School,"2174 N Hametown Rd, Bath, OH 44333",(330) 598-0602,-81.6739166,41.1971063
Cornerstone Christian School,"18363 Township Road 251, Findlay, OH 45840",(419) 721-1338,-83.5283491,41.0499478
Cornerstones,"14808 Shaker Boulevard, Shaker Heights, OH 44120",(216) 751-0935,-81.5783435,41.4820682
Country Day Christian School,"8250 Spencer Lake Road, Medina, OH 44256",(330) 667-2314,-81.9864403,41.1114273
Countryside Christian School,"6490 W. Lincoln Hwy, Elida, OH 45807",(419) 642-3233,-84.22949,40.850613
Covenant Christian Academy,"345 Charleton Court, Fairfield, OH 45011",(513) 942-1844,-84.49831370000001,39.363068
Covenant Christian Academy,"8371 New Delaware Road, Mount Vernon, OH 43050",(740) 392-1555,-82.5974568,40.3750175
Covenant Christian Academy,"185 Shady Avenue, Woodsfield, OH 43793",(740) 472-9151,-81.11238879999999,39.76347639999999
Covenant Christian School,"P.O. Box 473, Vandalia, OH 45377",(937) 264-8600,-84.21734029999999,39.8886463
Cozaddale Baptist Academy,"10632 Elzroth Rd, Goshen, OH 45122",(513) 722-2064,-84.15553039999999,39.271004
Crane Christian Academy,"5833 Sinclair Road, Columbus, OH 43229",(614) 338-9580,-82.9989331,40.084213
Crawford Clan Academy,"6201 Rockside Circle NW, Canton, OH 44718",(405) 740-0702,-81.47557069999999,40.87096529999999
Creekside Christian Academy,"2633 Lenox New Lyme Road, Jefferson, OH 44047",(440) 536-1566,-80.7625338,41.67906139999999
Crestview Classical Academy,"6985 Crestview Dr, Brecksville, OH 44141",(440) 724-9764,-81.6299018,41.3100116
Crockett Academy,"3041 State Route 235 S., St Paris, OH 43072",(937) 663-5533,-83.99052549999999,40.0821091
Cross Bridge Academy,"465 Sutton Road, Cincinnati, OH 45230",(208) 557-3792,-84.4104751,39.0619055
Dalveld Christian Academy,"211 Dellfield Lane, Gahanna, OH 43230",(740) 346-8167,-82.8567637,40.0131406
Daroda Academy,"760 Center St E, Warren, OH 44481",(330) 646-1108,-80.8251469,41.30788709999999
Dartworth Academy,"6510 Dartworth Drive, Parma, OH 44129",(440) 570-0466,-81.72970529999999,41.3999515
Davis Academy,"1168 Hoover Lake Court, Westerville, OH 43081",(614) 975-4911,-82.89011649999999,40.131061
Daybreak Academy,"36710 W Royalton Rd, Grafton, OH 44044",(440) 748-3785,-82.03019859999999,41.3155545
Dei Gratia Academy,"135 Crestwood Drive, Waverly, OH 45690",(740) 947-0123,-83.0103926,39.1091007
Diamond Fine Arts & Sciences Regional Institute,"208 3rd St, Fairport Harbor, OH 44077",(440) 271-1151,-81.27659430000001,41.7554971
Diamonds in the Making,"1673 East 82nd Street, Cleveland, OH 44103",(216) 229-9038,-81.6299446,41.5108713
Divine Mercy Academy,"2311 Duncannon Ave NW, Canton, OH 44708",(330) 477-5992,-81.4377914,40.824704
Dunham Academy,"PO Box 111, Westville, OH 43083",(937) 206-1069,-83.82053719999999,40.1085664
Eagle Academy,"6146 E. Walnut Street, Westerville, OH 43081",(614) 602-7694,-82.82261629999999,40.1137628
East Tenth Academy,"815 East 10th Street, Wellston, OH 45692",(740) 710-1123,-82.5260909,39.115032
Emanuel Christian Academy,"3052 Quinby Drive, Columbus, OH 43232",(614) 352-3106,-82.8422902,39.917253
Emmanuel Baptist Church School,"495 Old State Route 122, Lebanon, OH 45036",(513) 932-5205,-84.5177542,39.6129115
Endicott Academy,"1310 Apache Trail, Wapakoneta, OH 45895",(937) 694-7603,-84.1935997,40.5851769
Excellence in Learning Community School,"PO  Box 4422, Newark, OH 43058",(740) 814-2211,-82.35,40.12
Faith Christian Academy,"4446 Gale Road, Granville, OH 43023",(614) 575-9751,-82.5764403,40.0254193
Farmstead Christian School,"1251 TR 115, Deshler, OH 43516",(419) 275-2327,-83.8991072,41.2075509
Fayette Christian School,"1315 Dayton Avenue, Washington Court House, OH 43160",(740) 335-7262,-83.4608957,39.5399583
Fearon Academy,"2859 Township Road 179, Bellefontaine, OH 43311",(937) 599-2735,-83.72883759999999,40.3315602
Firelands Christian Academy,"P.O. Box 334, Sandusky, OH 44870",(419) 684-8642,-82.71168209999999,41.4561754
Firestone Classical Academy,"644 West Steels Corners Road, Cuyahoga Falls, OH 44223",(330) 283-4503,-81.53172599999999,41.1805029
Fisherman's Peace,"11925 Kenyon Rd, Mount Vernon, OH 43050",(419) 889-7316,-82.4134277,40.4075511
Foundations Christian Academy,"854 Silliman Road, Plymouth, OH 44865",(419) 687-0980,-82.61362609999999,41.014598
Franklin Academy,"5100 Bigelow Drive, Hilliard, OH 43026",(614) 286-0726,-83.1510316,40.0225147
Franklin Furnance Christian Academy,"P.O. Box 239, Franklin Furnace, OH 45629",(740) 354-9301,-82.8479074,38.6177995
Free Mind Academy,"24065 Ambour Drive, North Olmsted, OH 44070",(440) 796-5355,-81.8873272,41.4417534
Freedom Christian Academy,"117 Ross Ave, Hamilton, OH 45011",(513) 260-9751,-84.5685556,39.4017921
Freedom Preparatory Academy,"8707 Sedona Dr, Lewis Center, OH 43035",(740) 657-3706,-82.99891509999999,40.1561104
French Creek Christian Academy,"36602 Kinzel Road, Avon, OH 44011",(440) 934-3323,-82.0261965,41.4424945
Full Life Academy,"146 Purple Finch Loop, Pataskala, OH 43062",(740) 862-0438,-82.6752412,39.9700024
Garret Academy,"2465 Addyston Road, Akron, OH 44313",(330) 714-8809,-81.60363459999999,41.1164944
GEC School,"1410 Hubbard Rd, Galloway, OH 43119",(614) 557-0524,-83.2411491,39.9764983
Gentle Shepherd School,"4564 West Ranchview Avenue, North Olmsted, OH 44070",(440) 785-1059,-81.9084187,41.4229779
Germantown Christian Schools,"9440 Eby Road, Germantown, OH 45237",(937) 855-7334,-84.3632824,39.608379
Glow Academy,"1258 Orchard Glen Dr, Amherst, OH 44001",(440) 628-2083,-82.2493535,41.4091651
"God's Teen School, Inc.","32 Buxton Ave, Springfield, OH 45505",(937) 504-7232,-83.7716713,39.9224912
Good Shepherd Christian Academy,"2101 N Michigan Street, Toledo, OH 43611",(419) 466-9798,-83.5104147,41.6733122
Good Shepherd School,"P.O. Box 169, Louisville, OH 44641",(330) 935-0623,-81.25955189999999,40.8372809
Goodview Academy,"663 Poulsen Dr, Akron, OH 44313",(330) 515-1849,-81.53556379999999,41.1186892
Gospel Haven Academy,"6871 State Route 241, Millersburg, OH 44654",(330) 674-0752,-81.8493299,40.6000834
Grace Academy,"1000 Howard St, Mount Vernon, OH 43050",(740) 485-3399,-82.46899289999999,40.3877761
Grace Academy,"10107 Saddle Bridge Drive South, Whitehouse, OH 43571",(918) 550-3126,-83.7834122,41.5210842
Grace Baptist Academy,"919 W. Thrush Ave, Crestline, OH 44827",(419) 683-2334,-82.749185,40.795114
Grace Christian Academy,"5409 Gifford Ave, Cleveland, OH 44144",(216) 739-0547,-81.72410479999999,41.4336663
Grace Christian Academy,"10001 Chillicothe Road, Kirtland, OH 44094",(440) 749-0954,-81.34511380000001,41.5994551
Grace Learning Academy,"46690 West Almar Lane, St Clairsville, OH 43950",(740) 699-0006,-80.9515722,40.0628552
Grace Prep School,"1263 Harmony Drive, Wadsworth, OH 44281",(330) 336-6550,-81.729748,41.0573829
Gratia Dei School,"2346 Secor Road, Toledo, OH 43606",(270) 929-2876,-83.6219352,41.6659444
Green Pastures Classical School,"48764 Hillcrest Drive, St Clairsville, OH 43950",(304) 280-7739,-80.90528359999999,40.1121284
Guardian Angel,"7231 Hahn Street NE, Louisville, OH 44641",(330) 418-2470,-81.2625089,40.8874266
"Guided Transitions for Supported Individuals, LLC","95 Hanna Parkway Unit D, Akron, OH 44319",(330) 203-0182,-81.5225856,41.0210708
"Hadden Institute, The","5280 Township Road 170, Cardington, OH 43224",(812) 593-0635,-83.78220499999999,40.5896878
Haggadah Academy,"237 35th Street NW, Canton, OH 44709",(234) 214-3296,-81.3692216,40.83660769999999
Hametown Christian Academy,"4774 S. Hametown Road, Norton, OH 44023",(330) 825-7891,-81.6681407,41.0051008
Hands on Learning Academy,"76 Pueblo Lane, Columbiana, OH 44408",(440) 454-2246,-80.6814338,40.8693835
Harrell Family Academy,"62010 Russell Long Run Road, Bethesda, OH 43215",(318) 581-5087,-81.1127983,39.9956518
Harrison Enrichment Academy,"4531 Emerson Road, South Euclid, OH 44121",(216) 938-9877,-81.51680379999999,41.5287276
Harvest Temple Christian Academy,"P.O. Box 263, Clyde, OH 43410",(419) 547-8251,-82.975192,41.30422009999999
Hawkeye Academy,"532 Cherrington Ct, Westerville, OH 43081",(513) 675-8984,-82.9084261,40.11237819999999
Heartland Academy,"2577 Greely Chapel Rd, Lima, OH 45804",(419) 303-4363,-84.0704009,40.7040476
Heath Academy,"7232 Saddlewood Drive, Westerville, OH 43082",(412) 564-3284,-82.90472679999999,40.16460989999999
Henry Johnson Academy for Scholars,"291 E. 222, Euclid, OH 44123",(216) 592-8521,-81.5262955,41.6066619
Heritage Baptist Academy,"77 Saxe Rd, Mogadore, OH 44260",(330) 628-9559,-81.3911753,41.0676145
Heritage Christian School,"P.O. Box 454, Little Hocking, OH 45742",(740) 667-3149,-81.69985229999999,39.2606309
Heritage Christian School,"4403 Tiedeman Road, Brooklyn, OH 44144",(216) 476-7976,-81.7574022,41.43742400000001
Heritage Christian School,"2000 Broad Avenue, Findlay, OH 45840",(419) 424-9511,-83.6650131,41.06405460000001
Heritage Christian School,"193 Marion-Williamsport Rd, Marion, OH 43302",(740) 382-6248,-83.1282504,40.6143142
Heritage Classical Academy,"7100 Pettibone Rd, Chagrin Falls, OH 44023",(330) 548-1738,-81.38796959999999,41.3634259
Heritage Oaks Academy,"67 Oak Street, Delaware, OH 43015",(419) 612-2822,-83.05457469999999,40.3010249
Heritage Private School Inc.,"9060 Yoder Road, Sterling, OH 44276",(330) 669-2900,-81.8100959,40.9096384
High Street Christian Academy,"7339 N. High Street, Columbus, OH 43235",(614) 888-5121,-83.0169391,40.1067827
Hilltop Academy,"21 Hill Street, Coalton, OH 45621",(740) 288-5671,-82.608192,39.106568
Holy Family of Nazareth,"1531 Applewood Way, Uniontown, OH 44685",(330) 206-2798,-81.47915239999999,40.9456437
Honor Academy,"1250 Richter Road, Columbus, OH 43223",(614) 622-7636,-83.03557119999999,39.9256405
Hoover Christian Academy,"9979 Hoover Woods Road, Galena, OH 43021",(614) 560-6649,-82.86494569999999,40.1845961
Hope Christian Academy,"25 S. Westmoor Ave, Apt. C, Newark, OH 43055",(740) 348-6390,-82.45687439999999,40.0446584
Hope Liberty Christian Academy,"1088 Eagle Drive, #1215, Akron, OH 44312",(440) 590-2064,-81.4864058,40.9856168
Hoy Christian Academy,"31 N. Railroad St, New London, OH 44851",(440) 935-2826,-82.3982249,41.0876476
Huber Heights Christian Academy,"7730 Taylorsville Road, Huber Heights, OH 45424",(937) 236-5883,-84.0953779,39.8594816
IDEA House Educational Service LLC,"6630 Towpath Ave, Canal Fulton, OH 44614",(330) 970-0777,-81.571764,40.87836799999999
Immaculate Conception Academy,"4510 Floral Avenue, Norwood, OH 45212",(513) 731-0154,-84.44920909999999,39.1580013
In the Light Christian School,"38058 Terrell Drive, North Ridgeville, OH 44039",(440) 309-4461,-82.04933319999999,41.3657996
Independence Christian Academy,"9734 Independence Blvd, Parma Heights, OH 44130",(440) 669-5696,-81.7538757,41.3740971
"INK Preparatory School, The","882 Sheridan Avenue, Bexley, OH 43",(614) 584-2916,-82.93981310000001,39.9505124
Intelligent Hearts,"4119 West 145th Street, Cleveland, OH 44135",(440) 941-6582,-81.7957675,41.4421949
Ironwood Preparatory School,"19 Ironclad Drive, Columbus, OH 43213",(614) 746-9210,-82.8641797,39.978123
Ivy Haven Christian Academy,"1141 Elm St, Grafton, OH 44044",(440) 926-0253,-82.05086539999999,41.2776542
Jabez Christian Academy,"17095 Heiland-Kies Road, Botkins, OH 45306",(937) 371-4343,-84.14580149999999,40.4476123
Jackson Christian Academy,"14500 Township Road 168, Findlay, OH 45840",(419) 788-8916,-83.6032859,40.9725441
JEM Academy,"12307 Butterfield Drive, Pickerington, OH 43147",(614) 833-2110,-82.77008649999999,39.9145253
JSH Academy,"711 Hunnicut Dr, Reynoldsburg, OH 43068",(614) 531-6117,-82.75702679999999,39.975548
Juniper Lyceum,"1541 E. Cooke Rd, Columbus, OH 43224",(614) 301-3430,-82.9744124,40.04526329999999
Kavod Messiante Academy,"2317 13th St NW, Canton, OH 44708",(330) 288-9494,-81.3992653,40.8118456
Kelly's Homeschool,"1823 1/2 Allison Street, East Liverpool, OH 43920",(330) 639-7655,-80.5757022,40.6339709
Kharis Christian Academy a Community of Grace,"2709 Burbank Avenue, Middletown, OH 45044",(513) 292-8456,-84.3808918,39.4958945
Kingdom Institute,"10114 Brooks Carroll Rd, Waynesville, OH 45068",(513) 897-3586,-84.004969,39.4852435
Kingdom Way Academy,"7457 Beach Road, Wadsworth, OH 44281",(330) 239-8929,-81.75447489999999,41.0711461
Kings Academy,"14997 US HWY 50, Chillicothe, OH 45601",(740) 600-1909,-82.9824019,39.3331197
King's Academy,"348 Simcox St, Wadsworth, OH 44281",(330) 819-6260,-81.738896,41.0338271
King's Classical Academy,"2414 State Route 125, Hamersville, OH 45130",(937) 379-0379,-83.97560430000001,38.907869
King's Dominion Academy,"12954 Rainrock Road, Utica, OH 43080",(614) 551-5344,-82.280288,40.2371154
Klay Academy,"2992 East State Road, Lima, OH 45807",(419) 225-8508,-84.04934779999999,40.8167497
Kokosing Valley School,"10565 Monroe Mills Rd, Gambier, OH 43022",(740) 427-2037,-82.3711665,40.382203
Koposetic Christian Academy,"1724 Veste Rd, Wakeman, OH 44889",(440) 864-3025,-82.3996114,41.25449649999999
L.A.D. School,"1500 Mozart Dr, Westlake, OH 44145",(440) 835-1015,-81.9178002,41.4646673
Lake Erie Christian Academy,"5100 Shady Ridge Lane, Brooklyn Heights, OH 44131",(216) 543-4944,-81.6716277,41.4161136
Lakeshore Academy,"32163 Teasel Ct., Avon Lake, OH 44012",(440) 752-6164,-81.99231879999999,41.4838156
Lakota Christian School,"7000 Summerhill Drive, West Chester, OH 45069",(513) 642-9100,-84.3896259,39.3450921
Lamed School of Discovery,"9475 Bellbrook Road, Waynesville, OH 45068",(513) 897-7256,-84.0772106,39.567345
Land of Green,"PO Box 295, Atwater, OH 44201",(440) 744-5647,-81.1635821,41.0238009
LaPointe Oakland Parkway,"1624 Oakland Parkway, Lima, OH 45805",(419) 304-4269,-84.1368674,40.7430829
Lauth Haus School,"7746 Newark Rd, Mount Vernon, OH 43050",(740) 507-4381,-82.4707699,40.3475948
Learn for Life Academy,"12527 Shondel Road, Rittman, OH 44270",(330) 749-3570,-81.7568467,40.9816054
Legacy Christian School,"1427 Artesian Lane, Fairborn, OH 45324",(805) 390-7700,-83.98719849999999,39.8216416
Legend Oaks Classical Academy,"3609 Legend Oaks Dr., Amelia, OH 45102",(513) 286-7063,-84.25473389999999,39.0377053
Liberty Bible Baptist School,"2025 E. Lincoln Hwy, Elida, OH 45807",(419) 641-1041,-84.1414224,40.831936
Liberty Christian Academy,"1210 Timbercrest St, Youngstown, OH 44505",(330) 707-4055,-80.6458499,41.1659176
Liberty Christian School,"801 Bellefontaine Avenue, Lima, OH 45801",(419) 229-6266,-84.093654,40.7395961
Liberty Preparatory Academy,"2031 Queens Meadow Lane, Grove City, OH 43123",(614) 226-2015,-83.0487567,39.9122151
Liberty Preparatory Academy,"900 Lockmead Court, Pataskala, OH 43062",(614) 312-2588,-82.76752599999999,40.0107963
Liberty School,"6871 Hillway Ave NW, North Canton, OH 44720",(864) 724-1384,-81.4733186,40.8802694
Licking County Christian Academy,"81 Licking View Drive, Heath, OH 43056",(740) 522-3600,-82.4413378,40.0246809
Lifelong Love of Learning,"1100 Concord Drive, Medina, OH 44256",(330) 241-5175,-81.83946999999999,41.1273223
Lifetime Achievement Christian Academy,"P.O Box 230, Granville, OH 43023",(614) 325-0063,-82.5610534,40.0488474
Lima Christian Academy,"3180 W. Elm Street, Lima, OH 45805",(419) 999-2219,-84.1625576,40.7378593
Lima Christian School,"2435 N Cole Street, Lima, OH 45805",(419) 229-4547,-84.128466,40.7721425
Lincoln Christian School,"52 Township Road 791, Nova, OH 44859",(419) 652-2413,-82.28078599999999,41.056311
Lincoln Preparatory Academy,"2655 Scott Court, Grove City, OH 43123",(419) 878-0933,-83.07298569999999,39.8918379
Little Liberal Arts Music Academy,"7946 Windrift Place, Reynoldsburg, OH 43068",(614) 434-6068,-82.7878429,39.9662119
Locust Grove School,"6531 North Urbana-Lisbon Rd, Mechanicsburg, OH 43044",(937) 828-1635,-83.6284621,40.0096059
Logos Learning Center,"12055 Marydale Drive, Chagrin Falls, OH 44023",(440) 600-3586,-81.2069125,41.4226751
Lone Oak Lifetime Learner's Academy,"53551 Lone Oak Lane, Bellaire, OH 43906",(740) 312-1552,-80.82278699999999,40.008996
Longfield Preparatory School,"15317 Chicken Bristle Rd, Farmersville, OH 45325",(937) 313-0021,-84.4685466,39.6995459
"Lord's Light School, The","7944 English Oak Trail, Macedonia, OH 44056",(330) 801-7867,-81.4847284,41.2867526
Love for Learning Academy,"4372 W. Ranchview Ave, North Olmsted, OH 44070",(440) 328-9643,-81.9081841,41.4258569
Love of Learning,"5311 Wood Trail Ave NE, Canton, OH 44705",(330) 575-5006,-81.3392968,40.8570115
Loveland Baptist School,"2288 Lilac Rd, Loveland, OH 45140",(513) 683-6213,-84.2628654,39.3068555
Lux Mundi Academy,"3267 Deer Creek Trail, Richfield, OH 44286",(330) 697-7103,-81.64205820000001,41.266658
"Lyceum, The","P.O. Box  21466, South Euclid, OH 44121",(216) 297-9448,-81.5322149,41.5233346
Madeira Baptist School,"7860 Euclid Avenue, Cincinnati, OH 45243",(513) 561-9566,-84.356212,39.1921653
"Main Street Schoolhouse, Inc","200 North F Street, Hamilton, OH 45013",(513) 868-0999,-84.5701089,39.4093923
Malachi's Children Christian School,"8558 Holiday Hills Drive, Cincinnati, OH 45255",(513) 835-5719,-84.3158053,39.085325
Mangeri Academy,"8343 Center St, Garrettsville, OH 44231",(443) 624-4329,-81.0894782,41.2883046
Manthano Academy,"P. O. Box 443, Lima, OH 45801",(419) 905-5075,-84.0801613,40.786903
"Marcum Academy, The","2245 Flickinger Hill Rd, Wooster, OH 44691",(330) 749-5987,-81.9796878,40.83658190000001
Margaret T. Academy,"6105 Orchard Hill Blvd, Lorain, OH 44053",(440) 240-8186,-82.1747936,41.4165766
Marietta Christian School,"4070 State Route 60, Marietta, OH 45750",(740) 373-5551,-81.462678,39.458433
Mars Hill Academy,"4230 Aero Drive, Mason, OH 45040",(513) 770-3223,-84.2904956,39.341577
Martin Academy,"861 Edgar Lane, Brunswick, OH 44212",(216) 374-6706,-81.7943793,41.2524173
Mary Seat of Wisdom Montessori,"36 Villa Dr, Steubenville, OH 43952",(740) 282-3802,-80.66152,40.3512224
Maxwell Academy,"881 Admore Dr, Kent, OH 44240",(330) 673-0720,-81.38069,41.1602258
Memorial Christian,"717 N Hall St, Ottawa, OH 45875",(419) 615-1049,-84.0389424,41.0259544
Mighty Grace Private Academy,"418 Eastern Avenue, Woodsfield, OH 43793",(740) 213-0399,-81.10691500000001,39.7607391
Mighty Oaks Academy,"8029 Fairview Road, Mount Vernon, OH 43050",(720) 394-0396,-82.5796508,40.3568833
Milford Christian Academy,"1365 Woodville Pike, Milford, OH 45150",(513) 575-1708,-84.2105053,39.2007916
Millennial Reign Academy,"36 Sprague Road, Berea, OH 44017",(440) 403-9279,-81.8591229,41.3509208
Missions Helping Hands Academy,"1752 Bising Avenue #5, Cincinnati, OH 45239",(513) 289-1149,-84.5517642,39.2209817
Mogadore Christian Academy,"3603 Carper Avenue, Akron, OH 44312",(330) 628-8482,-81.39617919999999,41.0388552
Montford Academy,"101 West Montford Avenue, Ada, OH 45810",(614) 560-1845,-83.82358130000001,40.77328
Moore Manor Academy,"507 S. Warner St., Forest, OH 45843",(419) 273-2915,-83.5095609,40.7967663
Mother of Divine Grace,"11012 Riverwood Drive, Grafton, OH 44044",(440) 458-6197,-82.08846969999999,41.3175391
Mount Pleasant School,"6660 Martinsburg Road, Mount Vernon, OH 43050",(740) 397-3139,-82.4133751,40.3281392
Mt. Hope Christian Academy,"9200 Strimple Road, Harrison, OH 45030",(513) 367-0450,-84.7211483,39.2470077
New Franklin Christian Academy,"16310 Lisbon Street SE, Minerva, OH 44657",(330) 862-2491,-81.0948239,40.7978365
New Hope Christian Academy,"40180 Parsons Road, Lagrange, OH 44050",(440) 478-2646,-82.1038887,41.2759627
New Life Christian Academy,"4080 Call Road, Perry, OH 44081",(440) 259-3850,-81.1298204,41.7613945
New Life School of Excellence,"14376 East Broad Street, Reynoldsburg, OH 43068",(614) 596-6508,-82.7564891,39.9908891
North Star Academy,"2303 Armstrong Drive, Sidney, OH 45365",(614) 506-3293,-84.15196379999999,40.3114451
Northside Christian School,"2655 Schrock Road, Westerville, OH 43081",(614) 882-1493,-82.9459546,40.1084206
Northstar Classical School,"103 McKnight Dr, Middletown, OH 45044",(513) 318-8823,-84.3756573,39.5097975
Northumbria Community Christian School,"P.O. Box 808, Gambier, OH 43022",(419) 788-0390,-82.397183,40.3759296
Nova Academy,"844 S. Broadleigh Road, Columbus, OH 43209",(614) 636-5365,-82.9227026,39.9531525
Oak Bend Academy,"3308 Oak Bend Blvd., Canal Winchester, OH 43110",(419) 651-5501,-82.818722,39.9148753
Oak Grove Christian School,"535 BF Goodrich Rd, Marietta, OH 45470",(740) 336-5041,-81.46649769999999,39.4480098
Ohio Christian Academy,"4419 Nelson Rd, Middletown, OH 45042",(513) 594-4334,-84.34837449999999,39.5291339
Ohio Wilderness Boys Camp Outdoor Experiential School,"44642 Zerger Quarry Road, Summerfield, OH 43788",(740) 838-4908,-81.3204402,39.746633
Oliver Wolcott Academy,"558 W Front St, Perrysburg, OH 43551",(419) 873-0339,-83.6410174,41.5559942
Operation Rebirth Inc.,"1638 Apple Road, St Paris, OH 43072",(937) 663-5765,-83.97190499999999,40.15055
Ora et Labora Academy,"539 Woodview Dr., Chillicothe, OH 45601",(740) 775-6205,-83.0179682,39.4378024
Ottawa County Christian Academy,"P.O. Box 69, Oak Harbor, OH 43449",(419) 898-3888,-83.1465875,41.5067173
Our Lady of Fatima Academy,"10736 Lagrange Road, Elyria, OH 44035",(440) 458-6240,-82.1187834,41.33312
Our Lady of Guadalupe Academy,"15412 Lydian Ave, Cleveland, OH 44111",(216) 671-4479,-81.805377,41.4563211
Our Lady of Light Academy,"4529 Secretariat Court, Avon, OH 44011",(440) 476-5672,-82.0544618,41.4228448
Our Lady Seat of Wisdom Academy,"5259 Rocky Rill Ave NE, Canton, OH 44705",(330) 357-2302,-81.33815810000002,40.8567099
Out of the Box Behavioral Solutional,"1011 Gorge Blvd, Akron, OH 44310",(330) 375-1660,-81.4985504,41.1052468
Padre Pio Academy,"12920 Madison Ave, Lakewood, OH 44107",(216) 571-0174,-81.7785739,41.4772146
Park Avenue Academy,"8217 Park Ave, Garretsville, OH 44231",(405) 458-9366,-81.09402639999999,41.2849034
Parkview Academy,"1913 Pilgrim St, Akron, OH 44305",(330) 730-7514,-81.4543954,41.0708162
Pathlighters Academy,"1960 Coltman Rd UPPR, Cleveland, OH 44106",(440) 941-3136,-81.5986894,41.5098352
Pax Christi School,"3245 Nagle Road, Avon, OH 44011",(440) 937-0069,-81.9888684,41.4431388
Phroneos Academy,"2740 Slabtown Road, Lima, OH 45801",(419) 967-6479,-84.0509182,40.7779719
Pilgrim Christian School,"2100 W. Breese Road, Lima, OH 45806",(419) 224-4333,-84.1437404,40.6882046
Pineview Christian Academy,"10395 Scott Road, Sidney, OH 45365",(937) 498-9294,-84.1914372,40.3515005
Pinson Palace,"106 8th Street NW, Barberton, OH 44203",(614) 733-9466,-81.61508889999999,41.01347150000001
Piqua Christian School,"P.O. Box 739, Piqua, OH 45356",(937) 773-8627,-84.24244490000001,40.1447732
Pope Pius Academy,"703 Parkview Court, Huron, OH 44839",(419) 616-3191,-82.5702724,41.3926536
Prasse Rd Academy,"4425 Prasse Rd, South Euclid, OH 44121",(216) 291-9449,-81.5207051,41.5239763
Primary Principle Lyceum,"38 Ledgewood Drive, Chillicothe, OH 45601",(740) 851-4998,-83.01941599999999,39.3226799
Proverbs Christian Academy,"5741 Cady Road, North Royalton, OH 44133",(440) 773-7667,-81.72692649999999,41.2850787
Providence Academy,"114 N. Main Street, North Fairfield, OH 44855",(419) 681-3634,-82.6114095,41.1070491
Providence Christian Academy,"5884 Shawnee Avenue, Walbridge, OH 43465",(419) 838-7361,-83.5093735,41.5559777
Puritan Reformed Christian Academy,"37879 Elva Lane, North Ridgeville, OH 44039",(440) 822-7000,-82.04882239999999,41.35926500000001
Rabbinical Yeshiva of Cincinnati,"2395 Twigwood Lane, Cincinnati, OH 45237",(513) 795-1400,-84.44298909999999,39.205262
Rardin Ranch,"8259 Keys Rd, Mount Vernon, OH 43050",(740) 398-8621,-82.56036449999999,40.3597049
Redeemer Christian Academy,"205 Blaine Street, Hamler, OH 43524",(419) 274-0022,-84.034565,41.2261706
Redwine Academy,"2031 Dallas Avenue, North College Hill, OH 45239",(513) 484-2617,-84.56323499999999,39.2152013
Reichelshelm Academy,"7680 Gerald Drive, Middleburg Heights, OH 44130",(412) 297-6173,-81.7906419,41.3547446
Revolution Christian School,"1572 State Route 380, Wilmington, OH 45177",(937) 823-2710,-83.9405702,39.4560142
Richland Christian Academy,"6507 State Route 273, Belle Center, OH 43310",(937) 935-6558,-83.810982,40.5096663
River of Light Academy,"13807 W. Lake Road, Vermilion, OH 44089",(440) 967-2022,-82.3845541,41.417766
Roberts STEM Academy,"13963 Sargents Road, Sidney, OH 45365",(937) 416-5203,-84.01959269999999,40.2164555
Rolling Hills Academy,"114 Mallard Creek Run, Lagrange, OH 44050",(440) 213-2289,-82.1307097,41.2965604
Rolling Hills Christian School,"19963 State Route 698, Jenera, OH 45841",(419) 326-9304,-83.727054,40.9033591
Rose City Academy,"2850 Kenview Ave, Dayton, OH 45420",(937) 503-7220,-84.14978359999999,39.7264643
Royal Little Lambs Academy,"161 Deer Trail Drive, Springboro, OH 45066",(801) 750-9141,-84.2371205,39.5751391
Royal Oak Christian,"886 Country Club Dr, Cincinnati, OH 45245",(513) 753-3911,-84.27649650000001,39.0487172
RW Faith Academy,"4251 Custar Road, Deshler, OH 43516",(419) 278-8408,-83.8439022,41.2157695
Sacred Heart Academy,"4818 Washington Good Hope Rd, Washington Court House, OH 43160",(740) 606-5833,-83.34549299999999,39.44817099999999
Sacred Heart of Jesus Academy,"1552 Oak Tree, Brunswick, OH 44212",(330) 225-4654,-81.8274101,41.2331947
Sacred Heart of Jesus Catholic School,"2065 Beaumont Avenue N.W., Massillon, OH 44647",(330) 837-8002,-81.5563647,40.8143942
Salem Wesleyan Academy,"1095 New Garden Avenue, Salem, OH 44460",(330) 332-4819,-80.8621289,40.8954536
Salt and Light Christian Academy,"17875 County Road 8, Arlington, OH 45814",(513) 349-3272,-83.5944063,40.908177
Satterbury School for Exceptional Children,"2296 Satterbury Court, Dublin, OH 43016",(614) 439-8004,-83.0775171,40.1245474
School of Angels,"4170 Forest Ave, Norwood, OH 45212",(513) 554-1077,-84.4513352,39.1540368
School of Wisdom and Knowledge,"15212 State Route 698, Rawson, OH 45881",(419) 326-1157,-83.72815279999999,40.9476835
Scientia Classical Academy,"1005 Virginia Street, Martins Ferry, OH 43935",(740) 359-7081,-80.7357549,40.09021540000001
Sellers Academy,"94 South Norwalk Road W, Norwalk, OH 44857",(330) 473-3458,-82.5936526,41.222016
Serenity Hill Academy,"31981 Salem Alliance Rd, Salem, OH 44460",(330) 970-6673,-80.8954229,40.900484
Shadeville Christian Academy,"4800 Lockbourne Road, Columbus, OH 43207",(614) 491-6592,-82.9694358,39.8623923
Shekinah Christian Academy,"P.O. Box 276, Bristolville, OH 44402",(330) 889-2912,-80.86912730000002,41.3873741
Shekinah Christian School,"10040 Lafayette-Plain City Road, Plain City, OH 43064",(614) 873-3130,-83.3120445,40.0881637
Shireland Academy,"2868 Lenox New Lyme Road, Jefferson, OH 44047",(216) 406-4140,-80.7606826,41.6729503
SKILL Academy,"1075 Lawrence Rd, Harrod, OH 45850",(419) 230-4595,-83.89837759999999,40.7268958
Skyward Academy,"9994 Zig Zag Rd, Cincinnati, OH 45242",(513) 222-4611,-84.3627144,39.2413595
Skyward New Hope,"P.O. Box 498334, Cincinnati, OH 45249",(513) 600-8476,-84.3279093,39.2708955
Smith's Education Classroom,"935 Compton Lane, Youngstown, OH 44502",(330) 519-3102,-80.6359976,41.0750111
Solid Oak Christian School,"11178 Township Rd 201, Findlay, OH 45840",(314) 378-8716,-83.66044079999999,40.90643499999999
Sonlight Christian Academy,"321 Audubon Street, Pickerington, OH 43147",(614) 833-6647,-82.7889974,39.8675146
South Ridge Christian Academy,"P.O. Box Drawer 770, Conneaut, OH 44030",(440) 593-4657,-80.5542409,41.9475551
Southmorse Christian Academy,"11883 Saddlebrook Drive NW, Baltimore, OH 43015",(740) 400-4433,-82.5906962,39.8993111
Spark Ling Academy,"789 Ormsby Drive, Xenia, OH 45385",(937) 352-1480,-83.92738519999999,39.6747821
Spirit River Christian School,"7312 Wengert Road, Blacklick, OH 43004",(614) 868-0953,-82.80313699999999,40.003335
Spiritus Sanctus,"9584 Winchester Valley, Chesterland, OH 44026",(216) 398-5940,-81.30020309999999,41.5089579
Spring Valley Christian School,"4676 W 11th St, Cleveland, OH 44109",(216) 661-6384,-81.6879457,41.4291336
St Lawrence Academy,"17801 Ridge Rd, North Royalton, OH 44133",(865) 385-1904,-81.7435337,41.2910851
St Mary Mother of Christ School,"7625 Appleblossom Lane, Chesterland, OH 44026",(440) 729-9448,-81.3687491,41.545885
St. Anthony of Padua Academy,"4614 Persimmon Lane, Brunswick, OH 44212",(330) 460-3472,-81.8522535,41.2523882
St. Basil Academy,"1498 Oak Tree Drive, Brunswick, OH 44212",(440) 799-2488,-81.8274101,41.2346375
St. Bellarmine Academy,"223 Sunflower Drive, Brunswick, OH 44212",(330) 225-8081,-81.8259159,41.2696137
St. Cecilia School for Girls,"8584 Wiese Road, Brecksville, OH 44141",(216) 952-4643,-81.6069533,41.3287684
St. Elizabeth Ann Seton,"409 Murray Avenue, Minerva, OH 44657",(330) 495-2678,-81.0995011,40.7244292
St. Gerard Majella School,"6415 Mandalay Drive, Parma Heights, OH 44130",(440) 885-4162,-81.7746839,41.3895476
St. Gertrude the Great School,"4890 Rialto Road, West Chester, OH 45069",(513) 645-4216,-84.46361399999999,39.3241462
St. John the Evangelist Center for Learning,"2668 Killian Road, Uniontown, OH 44685",(906) 280-3680,-81.42819879999999,40.9943749
St. Joseph Preparatory School,"9152 Jug St. Rd, Alexandria, OH 43001",(614) 216-8078,-82.6636821,40.0966564
St. Martin of Tours Academy,"7068 L'Anna Drive, Orville, OH 44667",(740) 565-0246,-81.7661622,40.8861246
St. Nicholas Academy,"4274 Timberidge Ave, NW, Massillon, OH 44646",(330) 268-9884,-81.5188831,40.8433329
St. Peregrine Academy,"3086 W. Streetsboro Road, Richfield, OH 44286",(330) 659-6242,-81.6018361,41.2430889
St. Peter Faber Academy,"18236 Goudy Rd, Dalton, OH 44230",(330) 734-5623,-81.66394679999999,40.76476479999999
St. Theresa Academy,"1348 Granger Avenue, Lakewood, OH 44107",(216) 937-5895,-81.8171629,41.4868674
St. Therese of the Little Flower School,"6359 Daleview Road, Cincinnati, OH 45247",(513) 923-4244,-84.6553301,39.2120488
Sterling Education,"115 Lincoln Ave, Berea, OH 44017",(440) 260-7514,-81.8566275,41.3781794
Stonewall Academy,"6118 E. New Market Road, Hillsboro, OH 45133",(937) 402-4066,-83.6590093,39.133289
Streamview Academy,"2468 Columbia Road, Brecksville, OH 44141",(330) 659-0740,-81.5951552,41.2701078
"Strong Academy, The","22480 Hawley Road, Wellington, OH 44090",(440) 281-6961,-82.194198,41.162656
Strong Tower Christian Academy,"34925 Clear Creek Drive, North Ridgeville, OH 44039",(440) 353-0757,-82.0052671,41.3699762
Sts. Noel and Edmund Academy,"4625 Broadale Road, Cleveland, OH 44109",(216) 246-3663,-81.69113449999999,41.4303499
Sugar Creek Christian Academy,"4824 State Route 141, Ironton, OH 45638",(740) 533-2215,-82.6152413,38.5484384
Sunnybrook Cottage Academy,"119 Beebe Ave, Elyria, OH 44035",(440) 366-5804,-82.08129079999999,41.37691969999999
Sycamore Grove Academy,"6419 Sharon Woods Blvd, Columbus, OH 43229",(614) 352-1221,-82.9625267,40.0998513
Tabor Christian School,"6727 Tabor Ridge Road, Stockport, OH 43787",(740) 557-3169,-81.8173338,39.4981233
Taflan Christian Academy,"59010 Palmer Street, Byesville, OH 43723",(740) 338-9272,-81.5507512,39.9702099
Tallmadge Kiddie Kollege/F.A.C.T. Academy,"199 South Avenue, Tallmadge, OH 44278",(330) 633-9049,-81.4390054,41.095275
TCA Trotwood-Liberty Christian High School,"P.O. Box 3812, Dayton, OH 45401",(937) 732-8464,-84.1787904,39.7587998
Temple Christian Academy,"1150 South County Road 198, Freemont, OH 43420",(419) 332-7623,-83.07046969999999,41.3309997
Temple Christian School,"752 North Stewart Road, Mansfield, OH 44905",(419) 589-9707,-82.47432599999999,40.778223
The Bishop James Chapman Academy for Learning,"4781 Hamilton Ave, Cincinnati, OH 45223",(513) 559-5760,-84.5462642,39.1795566
The Bounty Collegium,"6711 Monroe St., Suite 2A, Sylvania, OH 43560",(419) 410-4930,-83.7053418,41.7143361
The Fourth Day Institute for Autodidaction,"1621 Merl Ave, Cleveland, OH 44109",(216) 398-5385,-81.6913912,41.42469639999999
The Fruits of the Spirit Academy,"10945 Coal Bank Road, Marietta, OH",(330) 957-3306,-81.45484359999999,39.41535200000001
The James Academy,"4965 Stoney Creek Dr, North Canton, OH 44720",(330) 563-4037,-81.4853503,40.9297081
The King's Kids Christian School,"115 E Sugar Street, Mount Vernon, OH 43050",(606) 219-9487,-82.4824885,40.3955872
The Master's Plan Academy,"24500 Eagle Pointe Court, Columbia Station, OH 44028",(440) 236-9672,-81.9011685,41.3236577
The Smith School,"6940 Palmetto Street, Cincinnati, OH 45227",(877) 718-2731,-84.37533560000001,39.1513289
The Vegan Academy,"23714 Woodway Road, Beachwood, OH 44122",(216) 338-8083,-81.5112517,41.495994
The Watson Learning School,"582 Laruel Dr SW, Etna, OH 43062",(614) 403-7444,-82.6378146,39.9645954
Theosis Classical Christian Academy,"185 Groveport Pike, Unit 15C, Canal Winchester, OH 43110",(614) 359-8706,-82.8107383,39.8426782
Thessaloniansa Academy,"435 Delaware Ave, Dayton, OH 45405",(937) 268-6868,-84.2143964,39.7772857
Three Rivers Preparatory School,"2581 E. Hanthorn Rd, Lima, OH 45804",(419) 302-0410,-84.0580589,40.7025447
Tipp City Christian School,"445 W. Evanston Road, Tipp City, OH 45371",(937) 667-9167,-84.2080058,39.9450475
Torah Beis Academy,"3659 S. Green Road 100, Beachwood, OH 44122",(216) 373-3456,-81.5161822,41.4604822
Torah Kadosh Academy,"824 Wintermute Avenue, Newark, OH 43055",(614) 558-1299,-82.4386499,40.0465983
Totus Tuus Academy,"3803 Royal Rock Road, Copley, OH 44321",(330) 664-4800,-81.65277909999999,41.1164836
Treasures of Grace Academy,"5849 Forestview Dr, Columbus, OH 43213",(614) 236-4366,-82.8449411,39.9750694
Triple A Academy,"440 Market St, Yorkville, OH 43971",(740) 859-0025,-80.7087288,40.1546504
Truth Christian Academy,"7601 Ohio River Road, Wheelersburg, OH 45694",(740) 574-8440,-82.861572,38.7364625
Truth Christian School,"P.O. Box 627, Hamden, OH 45634",(740) 384-5227,-82.52682589999999,39.1597938
Turner Learning Center,"3185 Winterset Dr, Beavercreek, OH 45440",(937) 426-3611,-84.05461179999999,39.6892945
Twenty Honey Academy,"20 Honey Court, Westerville, OH 43081",(614) 753-3204,-82.9400935,40.1261204
Universal Muslim Academy,"2232 Stratford Ave, Suite 200, Cincinnati, OH 45219",(513) 421-0700,-84.52280329999999,39.1240041
Valor Academy,"124 C. Cleveland Road, Norwalk, OH 44857",(419) 660-0533,-82.5965173,41.2465467
Venite Adoremus Academy,"244 Cedar Hill Drive, Waverly, OH 45690",(906) 241-7096,-82.98304189999999,39.15109530000001
Veritas Academy,"7541 Dublin Road, Dublin, OH 43017",(614) 726-9988,-83.1205827,40.12076709999999
Veritas Classical Academy,"P.O. Box 982, Marietta, OH 45750",(740) 885-2033,-81.45484359999999,39.41535200000001
Veritas et Erudition Academy,"9455 Airline Drive, Macedonia, OH 44056",(440) 658-3365,-81.50477719999999,41.3174524
Veritas et Libertas Classical Academy,"38 George St, Pataskala, OH 43062",(614) 353-8885,-82.6743553,39.9923662
Vermilion Private High School,"5735 South St, Vermilion, OH 44089",(440) 332-0077,-82.3684548,41.4184085
Vissing Institute for Higher Learning,"18325 State Route 141, Willow Wood, OH 45696",(740) 573-6015,-82.4582453,38.6443042
Water's Edge Academy,"2825 Shakespear Lane, Avon, OH 44011",(216) 210-5200,-82.0073778,41.4509379
Waynesville Christian School,"1009 Lytle Road, Waynesville, OH 45068",(513) 897-0418,-84.0920266,39.539796
Wayside Christian School,"2345 Kerstetter Road, Bucyrus, OH 44820",(419) 562-5930,-83.00315189999999,40.7960104
Weston Academy,"6193 Massillon Rd SW, Navarre, OH 43215",(814) 602-6691,-81.66829050000001,40.724072
Westwood Christian School,"3035 Irvella Place, Cincinnati, OH 45238",(513) 429-4261,-84.6029251,39.1370008
Whetstone Baptist Academy,"994 Poe Road, Bucyrus, OH 44820",(419) 985-2752,-82.9154039,40.7442232
Willow Brook Christian Academy,"1137 McNeil Drive, Blacklick, OH 43004",(614) 383-9405,-82.7997773,40.0092507
Willow Farms Christian Academy,"2125 State Route 48, Ludlow Falls, OH 45339",(937) 698-5125,-84.3382235,40.0065606
Winton Place Baptist Church and Academy,"4600 N Edgewood Ave, Cincinnati, OH 45232",(513) 681-3470,-84.51598690000002,39.1723314
Woodland Academy,"2569 Reeder Road, Blanchester, OH 45107",(513) 722-5769,-83.9081242,39.3388796
"Woods Academy, The","P.O. Box 1960, Elyria, OH 44036-1960",(216) 744-7033,-82.0962669,41.3707754
Worldview Preparatory Academy,"2240 Prysi Rd NW, Sugarcreek, OH 44681",(330) 340-7050,-81.5870175,40.5168009
Yahweh Academy,"1120 Hillsdale Ave, Parma, OH 44134",(440) 305-4160,-81.6870663,41.4018157
Yates Academy,"1535 Oakland Parkway, Lima, OH 45805",(317) 431-6037,-84.1347943,40.7424232
Yellow Creek Christian Academy,"23203 Hammansburg Rd, Deshler, OH 43516",(419) 966-9939,-83.8463694,41.2260466
Yellow Picket Primary,"10741 TR 81, Findlay, OH 45840",(419) 422-9161,-83.6746245,40.9991146
Yeshiva High School of Cleveland,"25400 Fairmount Blvd, Beachwood, OH 44122",(216) 338-4086,-81.4995457,41.4857771
Young's Country School,"4511 Redd Road, Delphos, OH 45833",(567) 204-5952,-84.2627569,40.8021737
Z Academy,"160 Ruby Red Lane, Delaware, OH 43015",(330) 607-5831,-83.04635309999999,40.2425783
Zanesville Christian School,"2400 Changlersville Road, Zanesville, OH 43701",(740) 454-2509,-81.971527,39.9268077
3rd Culture International School,"17951 Strongsville Boulevard, Strongsville, OH 44149",(440) 879-7234,-81.82583919999999,41.3464863
Advanced Christian Education,"12623 Waynesfield Rd, Wapakoneta, OH 45895",(419) 568-9100,-83.9758524,40.5375416
Athena Academy,"415 Whitman Blvd., Elyria, OH 44035",(440) 714-7774,-82.083503,41.3951622
Ave Maria Homeschool,"9358 Paulding St. NW, Massillon, OH 44646",(330) 737-3250,-81.5232559,40.9017053
B.L.E.S.S. School,"6562 Miller Drive, North Ridgeville, OH 44039",(440) 781-0580,-81.9897204,41.3904827
Bethlogos Academy,"13751 Congress Road, West Salem, OH 44287",(330) 241-1278,-82.09383609999999,40.9690848
Brittany Christian Academy,"1121 Brittany Blvd, Akron, OH 44312",(234) 738-1332,-81.41328170000001,41.0215664
Christian Heritage Academy,"118 Deerwalk Circle, Marietta, OH 45750",(740) 350-2234,-81.4591236,39.4727935
Clarion Christian Academy,"27161 Schady Rd, Olmsted Falls, OH 44138",(440) 591-1935,-81.94840959999999,41.3614682
Clearview Christian School,"9629 Enderby Dr, Parma, OH 44130",(440) 482-3800,-81.75244289999999,41.4064948
Cobblestone Christian Academy,"6622 Cobblefield Drive, Medina, OH 44256",(330) 730-6357,-81.8510158,41.0931848
"Cornerstone School, The","254 Virginia Circle, Wilmington, OH 45177",(937) 382-5331,-83.8210948,39.4513338
Corpus Christi Academy,"23804 Ambour Drive, North Olmsted, OH 44070",(440) 716-9270,-81.884923,41.442993
Covenant Academy,"1145 Wittmer Road, Mansfield, OH 44903",(419) 631-7321,-82.6246661,40.7274823
Deuteronomy 6 Christian School,"507 N. Main Street, Bluffton, OH 45817",(419) 957-0291,-83.8873668,40.896982
Dunham Academy,"2749 Eris Rd, Urbana, OH 43078",(937) 652-3434,-83.85186,40.1570882
Eagle Rock Academy,"15313 Hall Rd, Mount Vernon, OH 43050",(740) 272-2170,-82.5865148,40.2698394
Eastern Road Christian Academy,"2600 Eastern Road, Rittman, OH 44270",(330) 925-5437,-81.7827178,40.9873547
Eleutheria Academy,"1036 Arcaro Drive, Gahanna, OH 43230",(330) 461-3334,-82.855775,40.044917
Fairfield Christian School,"2470 Princeton Road, Hamilton, OH 45013",(513) 737-0841,-84.526684,39.3920138
Faith Christian Academy,"511 West Main St, Wilmot, OH 44689",(330) 359-6215,-81.6345463,40.657534
Friends in Christ Bible Fellowship,"5807 Adams Ave, Ashtabula, OH 44004",(440) 862-6039,-80.79021259999999,41.8549073
FTD High School,"20501 Indian Hollow Rd, Wellington, OH 44090",(440) 309-5200,-82.1077482,41.1840498
Garrison Global Academy,"7752 Montgomery Road, Suite 53, Cincinnati, OH 45236",(513) 526-1293,-84.38445970000001,39.1953293
Gateway Christian Academy,"661 East Exchange Street, Akron, OH 44306",(330) 253-9443,-81.49971169999999,41.07146520000001
Gospel Baptist School,"6235 Clingan Road, Poland, OH 44514",(330) 757-0736,-80.5907531,41.0275158
Grand Lake Christian School,"1001 Holly Street, Suite A, St Marys, OH 45885",(419) 300-9001,-84.406802,40.5495561
Heritage Classical Academy,"190 W. Streetsborg Street, Hudson, OH 44236",(330) 998-0554,-81.4504295,41.2393893
HGP Academy,"319 Cowan Creek Road, Clarksville, OH 45113",(937) 728-7375,-83.9554276,39.410343
Hover Agape Academy,"4212 Sequoia Avenue, Grove City, OH 43123",(614) 593-2407,-83.11444379999999,39.8906711
Identity and Destiny Academy,"10870 Hamilton Ave, Cincinnati, OH 45231",(513) 742-3569,-84.5616093,39.2751587
James Chapman Academy For Learning,"4731 Hamilton Ave, Cincinnati, OH 45223",(513) 542-4500,-84.5450686,39.1778282
Judah's Pride Academy,"8635 Tarlton Road, Circleville, OH 43113",(740) 474-6310,-82.8693833,39.56261569999999
Karma Academy of Learning,"49721 High Street Extension, St Clairsville, OH 43950",(740) 359-2636,-80.892984,40.070845
Kenyon Road Christian Academy,"11919 Kenyon Road, Mount Vernon, OH 43050",(614) 623-2358,-82.4152383,40.4056017
Life Classical Christian School,"222 High Street , #308, Hamilton, OH 45011",(513) 630-0617,-84.56107709999999,39.400115
McKenzie Academy,"3712 S. Beechgrove Road, Wilmington, OH 45177",(937) 382-1337,-83.8783828,39.42711329999999
Mentor Christian School,"8600 Lake Shore Blvd., Mentor, OH 44060",(440) 257-3172,-81.3299712,41.7171724
Most Holy Family Academy,"329 E. Cedar Street, Mount Gilead, OH 43338",(740) 341-9480,-82.82025840000001,40.551234
Nazareth School,"24607 Wolf Rd, Bay Village, OH 44140",(440) 250-0656,-81.8930645,41.4810948
New Covenant Christian Academy,"7177 Alma Terrace, New Albany, OH 43054",(614) 562-6586,-82.823773,40.1104028
New Hope Academy,"6668 Blossomgreen Way, Canal Winchester, OH 43110",(208) 880-2352,-82.81748019999999,39.8995175
New Horizons Academy,"PO Box 150, Wauseon, OH 43567",(419) 335-7272,-84.14161469999999,41.5492182
Northfield Baptist Christian School,"311 W. Aurora Road, Northfield, OH 44067",(330) 467-8918,-81.55016379999999,41.3149732
Open Road Academy,"4000 South State Route 605, Galena, OH 43021",(614) 898-9667,-82.809006,40.16225499999999
Our Lady of Grace Catholic School,"5247 S. Arlington Road, North Canton, OH 44720",(330) 896-0735,-81.49396399999999,40.9265199
Palmer Academy,"5354 Oakwood Dr, Sheffield Village, OH 44054",(765) 618-5561,-82.069803,41.4574262
RCS Academy,"8847 St Rt 65, Ottawa, OH 45875",(419) 523-4717,-84.01223940000001,41.0505721
Rembold Stem Academy,"8041 Lonesome Road, St Paris, OH 43072",(937) 663-5635,-83.91107269999999,40.142584
School on the Rock,"105 W. Chris Street, Carey, OH 43316",(314) 853-0804,-83.3744523,40.9462808
Simple Path Academy,"6930 Parma Park Blvd., Parma, OH 44130",(440) 539-9257,-81.77628829999999,41.37538360000001
Smith Academy,"10626 Norwalk Road, Litchfield, OH 44253",(330) 391-8437,-82.0720582,41.1674955
Spring Lake Christian School,"5675 Stuckey Rd, Creston, OH 44217",(330) 435-4532,-81.8940882,40.9968686
Spring Road Christian Academy,"311 South Spring Road, Westerville, OH 43081",(614) 882-1249,-82.90363370000001,40.1164643
St. Edmund Campion Academy,"4100 Taylor Avenue, Cincinnati, OH 45209",(513) 871-0331,-84.4278278,39.1526083
St. Francis Academy,"5295 Manchester Ave. NW, North Lawrence, OH 44666",(314) 435-9210,-81.60492579999999,40.8604211
St. Francis Academy,"3089 Moser Rd, Dalton, OH 44618",(330) 317-8830,-81.7031954,40.7624164
St. Margaret Mary School,"35114 Mills Road, Avon, OH 44011",(440) 327-1884,-82.00748159999999,41.4190572
St. Michael Academy,"7137 Big Creek Parkway, Middleburg Heights, OH 44130",(440) 886-0477,-81.8057949,41.37170709999999
Sterling Education - East Columbus,"758 Corylus Dr, Pataskala, OH 43062",(740) 919-4036,-82.6599481,40.00778409999999
Temple Christian Academy,"21453 Floralwood Drive, Howard, OH 43028",(740) 397-9673,-82.35811540000002,40.4536192
Temple Christian School,"1617 Ohmer Avenue, Dayton, OH 45410",(937) 253-5288,-84.1415045,39.7499237
Titus Academy,"438 Linwood Ave, Columbus, OH 43205",(614) 531-5902,-82.9652696,39.9571137
Veritas Academy,"6200 Linworth Road, Worthington, OH 43085",(614) 885-2810,-83.04916329999999,40.09149130000001
Veritas Christian Academy,"4828 County Highway 96, Carey, OH 43316",(419) 396-6842,-83.4012424,40.9227912
Abundant Life Academy,"3773 Goshawk Landing, Columbus, OH 43230",(614) 600-8443,-82.85369349999999,40.05648550000001
ACE Baptist Academy,"6290 Rip Rap Road, Huber Heights, OH 45424",(937) 233-8992,-84.1678585,39.8493179
Bethel Baptist Christian Academy,"745 North Freedom Street, Ravenna, OH 44266",(330) 296-9845,-81.23318809999999,41.1671504
Children's Montessori Cooperative,"401 North Winter Street, Yellow Springs, OH 45387",(937) 367-2659,-83.8910112,39.809981
Cloud Christian High School,"4009 E 188th St, Cleveland, OH 44122",(216) 752-7511,-81.5475761,41.4503949
Courage Christian Academy,"5485 Red Bank Rd, Galena, OH 43021",(740) 965-3010,-82.86275049999999,40.161097
Covenant Christian Academy,"860 Lewisville Road, Woodsfield, OH 43793",(740) 472-5321,-81.131159,39.7754199
Dominion Academy of Dayton,"925 N. Main Street, Dayton, OH 45405",(937) 224-8555,-84.19858959999999,39.7729042
Faith Academy,"250 Devon Rd, Delaware, OH 43015",(219) 204-1581,-83.07940099999999,40.2740412
Faith Academy,"204 W. Herrick Avenue, Wellington, OH 44090",(440) 537-0701,-82.2212504,41.1689046
Freedom Academy,"12201 Wayland Avenue, Cleveland, OH 44111",(216) 252-9718,-81.77293209999999,41.4504087
Good Shepherd Academy,"152 W. Grayling Drive, Akron, OH 44333",(330) 620-3502,-81.6087518,41.1331348
Grace Academy/Grace Bible Church,"2060 South Jefferson Avenue, Defiance, OH 43512",(419) 782-6391,-84.3613144,41.2566548
Greater Heights Academy,"2799 West River Road South, Elyria, OH 44035",(440) 453-3624,-82.1251614,41.338542
Hise Christian Academy,"44844 State Route 78, Woodsfield, OH 43793",(740) 484-4566,-81.0036997,39.7531458
Holy Family School,"5944 Sandelwood Avenue, North Ridgeville, OH 44039",(440) 327-1690,-82.0147851,41.4046161
Hopewood Christian Academy,"2951 Butler Road, Wakeman, OH 44889",(440) 822-6797,-82.36184449999999,41.2179125
Integrity Christian School,"405 Walnut Cliffs Drive, Columbus, OH 43213",(614) 377-7600,-82.85482840000002,39.9692946
Life Classical Christian School,"525 Maple Avenue, Hamilton, OH 45011",(513) 549-4428,-84.5572602,39.3966144
Living Word Preparatory School,"8315 Greenlawn Avenue, Parma, OH 44129",(440) 885-1172,-81.7427857,41.4085123
Lorien Academy of Arts and Sciences,"2550 Wendover Dr, Beavercreek, OH 45431",(303) 704-7823,-84.08616529999999,39.76605319999999
Manthano Academy,"15430 W. Sprague Road, Middleburg Heights, OH 44130",(440) 532-7472,-81.8100384,41.3507243
Midwest Literati Academy,"357 Raff Rd NW, Canton, OH 44708",(330) 479-1821,-81.4170166,40.80281979999999
Mother of the Redeemer,"4525 Michael Ave, North Olmsted, OH 44070",(440) 865-6571,-81.88146139999999,41.4231721
Mustard Seed Academy,"1456 Riverbend Drive, Defiance, OH 43512",(419) 782-5524,-84.3911279,41.3108764
Our Lady of Grace,"4816 West 211 Street, Fairview Park, OH 44126",(440) 331-1029,-81.85481659999999,41.4365773
Out of the Box Academy,"2383 S. Main St. C-100, Akron, OH 44319",(330) 400-4067,-81.5258494,41.0222604
School of Wisdom and Knowledge,"3312 Terrace Lane, Findlay, OH 45840",(419) 423-0241,-83.64625199999999,41.0798216
School on the Rock,"16722 Township Highway 22, Carey, OH 43316",(419) 396-4711,-83.43228599999999,40.96769
Solid Rock Baptist Academy,"1470 W Sandusky Avenue, Bellefontaine, OH 43311",(937) 844-1400,-83.7884918,40.3632883
Southmorse Christian Academy,"26 Jeremy Court, Pataskala, OH 43062",(740) 919-0045,-82.6023522,40.0077247
St. George Academy,"36602 Bauerdale Ave, Avon, OH 44011",(440) 934-4336,-82.0248553,41.4473557
Steart Christian Academy,"P.O. Box 311, Hamler, OH 43524",(419) 274-1154,-84.03411059999999,41.2292165
Universal Muslim Academy,"2232 Stratford Ave, 3rd Fl, Cincinnati, OH 45219",(513) 793-3076,-84.52280329999999,39.1240041
"Vogelbacher Academy, The","1450 Queen Anne's Gate, Westlake, OH 44145",(440) 482-9848,-81.9179173,41.4553232
Washington Academy,"429 Woodhill Drive N, Ashland, OH 44805",(330) 749-0256,-82.3155553,40.8524286
Water's Edge Academy,"3918 Jaycox Road, Avon, OH 44011",(216) 210-5201,-82.0036274,41.4322962
Alektor Academy,"1065 Shepherds Way, Clarksville, OH 45113",(937) 289-0250,-84.0063933,39.4064746
Bible Baptist Academy,"1944 Meriline Avenue, Dayton, OH 45420",(937) 253-1212,-84.134485,39.7383149
C.A.R.E. Christian Academy,"1226 Market Avenue, North, Canton, OH 44714",(330) 455-8590,-81.3715276,40.809923
Clover Creek Christian Academy,"B-397 County Road 12, Holgate, OH 43527",(614) 406-9577,-84.09344469999999,41.18731040000001
Covenant Christian Academy,"P.O. Box 367, Eaton, OH 45320",(937) 456-2177,-84.6366201,39.7439405
Crestwood Christian Academy,"333 Cemetery Road, Wellington, OH 44090",(440) 647-3419,-82.20812900000001,41.1584836
Dartworth Academy,"6510 Dartworth Dr, Parma, OH 44129",(440) 842-5300,-81.72970529999999,41.3999515
Delaware Christian Academy,"2280 Marysville Road, Delaware, OH 43015",(740) 369-2524,-83.1128126,40.3029725
Detroit South High School,"26800 Woodmont Drive, #73, Perrysburg, OH 43551",(248) 854-1234,-83.5908084,41.54000509999999
Divine Mercy Academy,"36057 Atlantic Avenue, North Ridgeville, OH 44039",(440) 353-9446,-82.0211084,41.4041032
Eagle Preparatory Academy,"6810 Blacklick Eastern Rd, Pickerington, OH 43147",(614) 833-0515,-82.7130055,39.9301362
"Eagles Academy, The","543 North Center Street, Lagrange, OH 44050",(440) 355-4835,-82.12012279999999,41.2461669
Faith Christian Academy,"PO Box 195, Lakemore, OH 44250",(330) 899-4119,-81.42893049999999,41.023832
Faville Christian Academy,"2260 S. Dugan Rd, Urbana, OH 43078",(937) 539-8269,-83.7163851,40.0768794
Freedom Christian Academy,"1015 Shuler Avenue, Hamilton, OH 45011",(513) 737-9384,-84.54439459999999,39.3868802
Galaxie Learning Academy,"2505 S. Dayton Brandt Road, New Carlisle, OH 45344",(937) 845-1652,-84.05724,39.9658639
Hopewood Christian Academy,"5581 State Route 18, Wakeman, OH 44889",(419) 929-8493,-82.3864815,41.1828212
HSM Academy,"4874 Mirror Lake Drive, Lima, OH 45801",(419) 222-1836,-84.0134581,40.7644777
In His Image Academy,"2903 Aylesbury St NW, North Canton, OH 44720",(330) 933-1349,-81.39838309999999,40.9177253
Integrity Christian School,"825 Persimmon Place, Columbus, OH 43213",(614) 856-9225,-82.8304229,39.9633955
Jackson Catholic Academy,"8238 Grayson Green Street NW, Massillon, OH 44646",(978) 381-3380,-81.504134,40.8669613
Jaeger House of Learning,"5817 Lathrop Place, Cincinnati, OH 45224",(513) 541-9030,-84.5519279,39.19750519999999
Joliet Academy,"8480 Wildcat Road, Tipp City, OH 45731",(937) 329-0529,-84.17216379999999,39.9583892
L.L. Academy,"4325 W US Highway 22/3, Wilmington, OH 45177",(937) 302-8123,-83.90456739999999,39.4431966
Land of Green,"PO Box 539, Parkman, OH 44080",(417) 630-1365,-81.06477129999999,41.3695422
Logos Learning Center,"19459 Rolling Brook Lane, Columbia Station, OH 44028",(440) 236-6290,-81.9428898,41.2787407
Mars Hill Christian Academy,"1926 Windsor Place, Findlay, OH 45840",(419) 423-4877,-83.61052169999999,41.0452406
Mast Academy,"707 Maple Street, Mansfield, OH 44906",(419) 543-3633,-82.54145319999999,40.7543368
Middleton Academy,"5741 W. US Hwy 22 & 3, Wilmington, OH 45177",(513) 678-5579,-83.92968809999999,39.43993589999999
Northside Christian School,"8921 N. Dixie Drive, Dayton, OH 45414",(937) 890-1361,-84.1996628,39.8608105
Northumbria Community Christian School,"407 Martinsburg Rd, Mount Vernon, OH 43050",(419) 889-9999,-82.47736979999999,40.3752891
Petra Christian Academy,"25 Clearwater Drive, Brunswick, OH 44212",(440) 334-1777,-81.8169922,41.2749397
Pleasant Places High School,"10988 Midway Rd, South Solon, OH 43153",(937) 462-9196,-83.61124939999999,39.79315890000001
Puritan Reformed Christian Academy,"8783 Ashton Place, North Ridgeville, OH 44039",(440) 309-4840,-82.04792859999999,41.366286
Sacred Heart Academy,"6505 County Road 109, Mount Gilead, OH 43338",(419) 560-7274,-82.7039195,40.5337586
Shekinah Christian Academy,"1091 Concord Drive, Medina, OH 44256",(440) 785-5936,-81.8403238,41.1273048
Solomon Christian Academy,"8219 Shawnee Forest Drive, Findlay, OH 45840",(419) 423-8292,-83.57319009999999,41.0478119
Southmorse Christian Academy,"3551 Babbitt Road, Blacklick, OH 43004",(614) 933-9427,-82.77806849999999,40.0491012
Spirit Academy,"608 Ridgecrest Rd, Akron, OH 44303",(330) 865-5873,-81.5433372,41.1129089
St. Francis of Assisi School,"16612 Twp. Rd 168, Arlington, OH 45814",(419) 348-0829,-83.562829,40.9720784
St. Maximilian Kolbe School,"2940 West Tower Ave, Cincinnati, OH 45238",(513) 574-5060,-84.5990187,39.1327308
Stechschulte Christian Academy,"P.O. Box 4, Miller City, OH 45864",(419) 876-3062,-84.1263623,41.1050406
Summit Christian Academy,"186 Jamestown Parkway, Avon Lake, OH 44012",(440) 853-7817,-81.993831,41.5082811
Temple Christian Academy,"1481 Yauger Road, Mount Vernon, OH 43050",(740) 397-7572,-82.4453587,40.3972223
Trisler Christian Academy,"9160 Lochard Road, Sidney, OH 45365",(937) 498-4574,-84.117228,40.3338271
Veritas Classical Christian Academy,"1144 W Main St, Ashland, OH 44805",(419) 289-8344,-82.33645709999999,40.8687096
Victory Christian School,"960 Children's Home Road, Urbana, OH 43078",(937) 652-1133,-83.7306222,40.1214686
Village Baptist Academy,"6322 Whipple Ave, NW, North Canton, OH 44720",(234) 401-9585,-81.4214267,40.872881
Washington Academy,"429 Woodhill Dr, North, Ashland, OH 44805",(330) 321-5105,-82.3155553,40.8524286
Williams Home School Academy,"129 Elm Hill Drive, Dayton, OH 45415",(937) 275-3390,-84.2376555,39.8251085
"Willow Creek Learning Center, Inc.","1322 W. Western Reserve Road, Youngstown, OH 44514",(330) 758-6871,-80.6749694,40.9894752
Yahweh Academy,"6964 Broadview Road, Parma, OH 44134",(216) 901-0981,-81.6858759,41.37638099999999
Riverbirch Academy,1761 Turnberry NW Canton 44708,(330) 477-4233,-81.450923,40.8188514
Saint Francis of Assisi School,16612 Twp Rd 168 Arlington 45814,(419) 694-1042,-83.562829,40.9720784
Joliet Academy,8480 Wildcat Road Tipp City 45731,(937) 667-0529,-84.17216379999999,39.9583892
Oakwood Christian School,124 Eastern Heights Blvd. Elyria 44035,(440) 322-4630,-82.0995398,41.3633897
Jackson Catholic Academy,8238 Grayson Green Street NW Massillon 44646,(330) 837-3381,-81.504134,40.8669613
PCS Academy,2920 Plum Creek Parkway Medina 44256,(330) 723-5696,-81.8083023,41.1956937
Tykes Academy,10107 Saddle Bridge Drive S Whitehouse 43571,(419) 419-0482,-83.7834122,41.5210842
St. Anthony of Padua Academy,176 Brentview Dr Grafton 44044,(440) 309-4116,-82.0753982,41.3185276
565 Academy,2157 Glenwood Toledo 43620,(419) 242-1997,-83.562496,41.6635603
Aletheia Academy,393 Madison Ave Marion 43302,(740) 382-5345,-83.0981463,40.5958439
Isley Preparatory Academy,2242 Heron Lane Marion 43302,(740) 386-2808,-83.06984059999999,40.5882462
CJT Brock Academy,6614 Cobblefield Dr Medina 44256,(330) 635-0586,-81.8509945,41.09335919999999
Shema Institure,2677 Township Road 27 Bluffton 45817,(419) 236-6821,-83.8296727,40.848535
L.L. Academy,2064 Ogden Road Wilmington 45177,(937) 383-6943,-83.9073172,39.4168174
Saint Mary's Consilidated School,23185 W State Route 51 Genoa 434430,(419) 559-8398,-83.359094,41.5181064
Rardin Ranch Limited,8259 Keys Rd Mt Vernon 43050,(740) 397-7422,-82.56036449999999,40.3597049
Faith Academy,204 W Herrick Ave Wellington 44090,(440) 647-4610,-82.2212504,41.1689046
Terrill Academy,2642 Huntington Drive Troy 45373,(937) 332-6700,-84.25247069999999,40.0121518
Uniontown Christian Academy,2989 Meadowland Uniontown 44685,(330) 798-1002,-81.4151277,40.9894265
Clearview Christian School,9629 Enderby Dr Parma 44130,(440) 884-9716,-81.75244289999999,41.4064948
Zoe Academy,1606 Tower Blvd. Lorain 44053,(440) 282-3427,-82.19232699999999,41.4326741
Christian Community School,35716 Royalton Road North Eaton 44044,(440) 748-6224,-82.0144095,41.3147326
Brookside Academy,7515 Brookside Road Independence 44131,(216) 849-4506,-81.6312075,41.3586874
Maple Hill Christian Academy,1144 Gulf Road Elyria 44035,(440) 365-6725,-82.0883527,41.4020309
Meadow Lark Christian Academy,1095 Meadow Lark Drive Enon 45323,(937) 864-0477,-83.9279851,39.8528455
Academy of Christian Learning,348 W. Washington Street Sabina 45169,(937) 584-5342,-83.6423669,39.487089
The Classical,21575 Riviera Dr Fairview Park 44126,(440) 716-6084,-81.8581003,41.4257719
Millenial Reign Academy,36 Sprague Rd Berea 44017,(440) 973-4531,-81.8591229,41.3509208
Reichelshelm Academy,7718 Alan Parkway Middleburg Heights 44130,(440) 532-7322,-81.8038823,41.3541738
Verum Dei Academy,23702 Sawmill Rd Olmsted Falls 44138,(440) 239-0661,-81.8852369,41.3527964
Woodrow Christian Academy,4506 Woodrow Ave Parma 44134,(440) 886-7088,-81.7164301,41.395359
Prindas High School,5735 South Street Vermilion 44089,(440) 752-6068,-82.3684548,41.4184085
Spring Road Christian Academy,311 South Spring Rd Westerville 43081,(614) 797-5701,-82.90363370000001,40.1164643
Yellow Creek Christian Academy,23203 Hammansburg Rd Deshler 43516,(419) 278-1808,-83.8463694,41.2260466
Liberty Christian Academy,1210 Timbercrest St Youngstown 44505,(330) 759-1025,-80.6458499,41.1659176
Alpha Omega Christian School,408 1/2 B Maple St Clyde 43410,(888) 643-4116,-82.981867,41.3023974
The Lyceum,PO Box 21466 S Euclid 44121,(216) 707-1121,-81.5322149,41.5233346
Moses Home School,5170 Brockton Dr Stow 44224,(330) 256-1699,-81.39331609999999,41.19526310000001
Stonewood Academy,505 Stonewood Dr Akron 44313,(330) 620-1448,-81.5578859,41.1184517
Lighthouse Christian Academy,7085 Gratis Jacksonburg Camden 45311,(937) 787-3618,-84.5370446,39.63762630000001
Lifelong Love of Learning,1100 Concord Drive Medina 44256,(330) 635-6988,-81.83946999999999,41.1273223
West Liberty Christian School,2601 Sweetwater Findlay 45840,(419) 425-4268,-83.6666126,41.07074950000001
Hathaway Academy,260 Hathaway Dr Cuyahoga Falls 44223,(330) 928-6066,-81.51758679999999,41.172171
Logos Christian Academy,3101 Logan Way Youngstown 44505,(330) 759-0553,-80.6369623,41.14029
Northern Ohio Christian Academy,1936 Chenango Rd Wakeman 44889,(440) 653-3695,-82.366687,41.19041199999999
Grantleigh Rd Academy,1374 Grantleigh Rd South Euclid 44121,(216) 382-4714,-81.5323679,41.5225635
Mason Christian Academy,5264 Blossom St 2403 Hamilton 45011,(513) 341-6276,-84.45002389999999,39.3170612
Keys Joy School,1940 Clairmont Ave Akron 44301,(330) 724-9779,-81.52516349999999,41.03386649999999
Gerrick Christian School,7705 York Road Parma 44130,(440) 476-5820,-81.7591757,41.3566711
Turner Learning Center,3185 Winterset Dayton 45440,(937) 428-1522,-84.05461179999999,39.6892945
St. Peter Julian Eymard School,3119 Winsted Drive Brunswick 44212,(330) 220-0573,-81.7980525,41.2542389
Beacon for Christ,5866 Wallace Blvd North Ridgeville 44039,(440) 465-7555,-81.9987932,41.4044159
DioSegunte,20510 Lorain Rd Fairivew Park 44126,(440) 610-8027,-81.8470973,41.4486392
Hilltop Academy,316 N Springfield Dr Macedonia 44056,(330) 468-1737,-81.50477719999999,41.3174524
St. Matthew,17740 Galehouse Rd Doylestown 44230,(330) 658-7264,-81.67017299999999,40.9364938
Hilltop Academy,6770 Broadview Road Parma 44134,(216) 524-2056,-81.6852103,41.3811256
The Academy of Classical Education,16766 Woodshire Drive Strongsville 44149,(440) 532-2222,-81.8411701,41.2940852
Thompson Bible Institute,PO Box 207 Bellevue 44811,(419) 483-2023,-82.8415763,41.2736647
St. Joseph Academy,3515 Little Blvd. Norton 44203,(330) 714-0239,-81.6548432,41.0380776
Our Lady of Victory School,706 Bailey's Trail Dayton 45440,(937) 431-5348,-84.0960056,39.6720868
Charis Christian Academy,9676 Monto Lane Findlay 45840,(419) 424-2029,-83.6949403,41.0366515
Healy Academy,149  Zackary Dr Granville 43023,(614) 746-7725,-82.61453390000001,40.0208418
Daybreak Academy,36710 W Royalton Rd Grafton 44044,(440) 783-3785,-82.03019859999999,41.3155545
Bethel Christian School,3499 St Rt 103 Bluffton 45817,(419) 358-0112,-83.8145258,40.8908364
Greater Heights Academy,133 Denison Ave Elyria 44035,(440) 309-4425,-82.0990731,41.3601638
The Strong Academy,737 Bobcat Dr Lagrange 44050,(440) 355-5127,-82.1554489,41.2087488
Saint Thomas Aquinas Academy,3996 Graham Dr Dayton 45431,(937) 231-3608,-84.0805946,39.7639243
Vine Academy,401 Vine St Waverly 45690,(740) 947-4296,-82.9837347,39.1221892
Hope Academy,8080 Weston Place NW North Canton 44720,(330) 494-9399,-81.4871517,40.8980958
Summit Co Education Service Center,420 Washington Ave Suite 200 Cuyahoga Falls 44221,(330) 945-5600,-81.48800949999999,41.1460892
White Tail Ridge Academy,635 White Tail Ridge Dr Fairlawn 44333,(330) 665-0322,-81.6222817,41.1164306
Trivium School,9115 Dolphin St SW Bolivar 44612,(330) 756-0162,-81.5326221,40.6506906
565 Academy,"2157 Glenwood, Toledo, 43620",4192421997,-83.562496,41.6635603
Academy of Christian Learning ,"348 W. Washington Street, Sabina, 45169",9375845342,-83.6423669,39.487089
"Academy of Classical Education, The","16766 Woodshire Drive, Strongsville, 44149",4402686024,-81.8411701,41.2940852
Academy of the Immaculate Heart of Mary,"2935 Chenoweth Road, Akron, 44312",3306443526,-81.4884598,40.9887
ACE Baptist Academy,"6290 Rip Rap Road, Huber Heights, 45424",9372338992,-84.1678585,39.8493179
Ada Christian Academy,"4073 State Route 309, Ada, 45810",4196349929,-83.803246,40.733375
Agape Christian Academy,"14220 Claridon Troy Road, Burton, 44021",4408348022,-81.1458481,41.4816803
Akron First Academy and Preschool,"1175 West Market Street, Akron, 44313",3308361436,-81.55251489999999,41.1021706
Alektor Academy,"1065 Shepherds Way, Clarksville, 45113",9372890250,-84.0063933,39.4064746
Alethia Academy,"393 Madison Avenue, Marion, 43302",7403825345,-83.0981463,40.5958439
All Saints Catholic School,"3810 Autumn Drive, Huron, 44839",4196264383,-82.644525,41.4094793
Alpha Omega Christian School,"408 1/2B E. Maple Street, Clyde, 43410",4195479300,-82.9601142,41.3169396
Antiquity Academy,"6216 State Route 521, Sunbury, 43074",7405242112,-82.94963059999999,40.327771
Apostolic Christian Academy,"5701 Sylvania Avenue, Toledo, 43623",4198555334,-83.68093089999999,41.6905532
Aspire Academy,"16690 Lucky Bell Lane, Chagrin  , 44023",4405430897,-81.2907221,41.4152529
Augustine Academy,"8596 Bechtel Road, Elyria, 44035",4403238879,-82.1761645,41.3661662
Ave Maria School,"383 Twp. Road 376, Toronto, 43964",7405445956,-80.6393035,40.4537062
B.L.E.S.S. School,"6562 Miller Drive, North Ridgeville, 44039",4403533022,-81.9897204,41.3904827
Beacon for Christ Academy,"5866 Wallace Blvd., North Ridgeville, 44039",4404657555,-81.9987932,41.4044159
Belpre Christian Academy,"200 First Lane, Belpre, 45714",7404237741,-81.56986859999999,39.287176
Berean Academy,"2127 Sumac Loop N., Columbus, 43229",6147942581,-82.960566,40.0809826
Bethel Baptist Christian Acadmey,"745 North Freedom Street, Ravenna, 44266",3302969845,-81.23318809999999,41.1671504
Bethel Baptist School,"434 Wilson Park Drive, West Carrollton, 45449",9378594713,-84.2577813,39.6561722
Bethel Christian School,"3499 State Route 103, Bluffton, 45817",4193580112,-83.8145258,40.8908364
Bethlogos Academy,"13751 Congress, West Salem, 44287",3302411278,-82.09383609999999,40.9690848
Bible Baptist Academy,"1944 Meriline Avenue, Dayton, 45420",9372531212,-84.134485,39.7383149
Bible Believers Christian School,"3500 Spencerville Road, Lima, 45805",4199995517,-84.1691118,40.723314
Blumfeldt Academy,"9385 Reed Road, North Ridgeville, 44039",4407484929,-81.990402,41.3548917
"Boehm Academy, The","209 E. McPherson Avenue, Findlay, 45840",4194200985,-83.6481637,41.0229393
Bogart Academy,"12372 Fite-Hauck Road, Sardinia, 45171",9374463995,-83.7851396,38.9778016
Bolser Family Academy,"6500 Hunting Creek Drive, Liberty Township, 45044",5138600442,-84.4038265,39.3931693
Bremen Holiness School,"1300 Mt. Zwingli Road, Bremen, 43107",7405694770,-82.44383599999999,39.697911
Broadview Classical Academy,"4300 Meadow Gateway, Broadview Heights, 44147",4405268021,-81.656117,41.3275876
Brookside Academy,"7515 Brookside Road, Independence, 44131",2165201443,-81.6312075,41.3586874
BSSB Academy,"4137 Bramshaw Road N.W., Canton, 44718",3304170210,-81.4494855,40.8408604
Building on the Rock Academy,"6736 County Road 10, Jenera, 45841",4193266184,-83.7522439,40.8191015
C.A.R.E. Christian Academy,"1226 Market Avenue, North, Canton, 44714",3304558590,-81.3715276,40.809923
"Calvary Academy, The","11970 Kenn Road, Cincinnati, 45240",5136749600,-84.50120849999999,39.2985863
Calvary Chapel Baptist School,"71 N. Hamilton, Minster , 45865",4196283717,-84.37153719999999,40.3945144
Calvary Christian School,"1140 Rush Avenue, Bellefontaine, 43311",9375996847,-83.7518681,40.3749299
"Cambridge Academy, The","943 Cambridge Road, Cleveland Heights, 44121",2163825934,-81.5381513,41.5346865
Carpe Diem Academy,"5939 Rainwater Way, Columbus, 43228",6145251450,-83.1600201,39.9658984
Carroll County Christian Academy,"1211 Lincoln Avenue N.W., Carrollton, 44615",3306275124,-81.0872364,40.5902913
Carson Academy of Excellence,"6380 Greenridge Avenue, New Carlisle, 45344",9373712660,-83.9207242,39.9501924
CBMS Conservatory,"14827 Rochelle Avenue, Cleveland, 44135",2169417506,-81.8000739,41.435477
Cedarview Christian Academy,"18520 Main Street, Middlesburg Heights, 44130",4402391530,-81.8369082,41.3521796
Central Baptist Academy,"1945 Frank Road, Columbus, 43223",6142798425,-83.0550219,39.918994
Champion's Christian Academy,"5284 Avery Road, Dublin, 43016",6147716777,-83.1571949,40.0683519
Chapel Hill Christian Academy,"14650 Jennings Road, Mount Vernon, 43050",7403933974,-82.4932535,40.3372655
Charis Christian Academy,"9676 Monto Lane, Findlay, 45840",4194242029,-83.6949403,41.0366515
Chesapeake Christian Academy,"120 Twp. Road 1043, Chesapeake, 45619",7408678900,-82.4680121,38.4266766
Christ Academy,"549 Creek Road, Clarksville, 45113",3302046330,-83.9501555,39.4296778
Christ the King Academy,"6451 Myrtle Hill Road, Valley City, 44280",3304830256,-81.9188449,41.254483
Christian Academy,"1001 North Maple Street, Marysville, 43040",9376440911,-83.3743897,40.24901970000001
Christian Community School,"35716 Royalton Road, North Eaton, 44044",4407496224,-82.0144095,41.3147326
Christian Faith Academy,"4322 Park Avenue, Ashtabula, 44004",4409983887,-80.78253099999999,41.8681616
Christian Heritage Academy,"118 Deerwalk Circle, Marietta, 45750",7403502234,-81.4591236,39.4727935
Christian Life Academy,"8877 Avon Beldon Road, North Ridgeville, 44039",4403530758,-82.018362,41.36409750000001
Christian Life Church Academy,"425 North Spring Road, Westerville, 43082",6147941830,-82.90300309999999,40.1362905
Christifideles School,"745 Union Station Road, Granville, 43023",7405870731,-82.5227693,40.0210859
Christ's Church Academy,"1440 Ridge Road N.E., Lancaster, 43130",7406870254,-82.5711173,39.739982
CJT Brock Academy,"6614 Cobblefield Drive, Medina, 44256",3306350586,-81.8509945,41.09335919999999
Clarion Christian Academy,"27161 Schady Road, Olmstead Falls, 44138",4405911935,-81.94840959999999,41.3614682
"Classical Academy, The","21575 Riviera Drive, Fairview Park, 44126",4407166084,-81.8581003,41.4257719
Clearview Christian School,"9629 Enderby Drive, Parma, 44130",4408849716,-81.75244289999999,41.4064948
Cobblestone Christian Academy,"6622 Cobblefield Drive, Medina, 44256",3307223363,-81.8510158,41.0931848
Community Christian Academy,"169 Beebe Avenue, Elyria, 44035",4409353304,-82.08124819999999,41.37851209999999
Community Christian Academy,"303 W. Fourth Street, Genoa, 43430",4198554187,-83.3621593,41.5149361
Concordia Academy,"122 Sycamore Street, Oberlin, 44074",4407754320,-82.2404823,41.2895317
Cornerstone Academy ,"207 W. West Street, West Union, 45693",9375445479,-83.5451934,38.7945166
Cornerstone Christian Academy,"1800 Tucscarawas Street East, Canton, 44707",3304562667,-81.3553316,40.7941407
Cornerstone Christian School,"18363 Township Road 251, Findlay, 45840",4197211338,-83.5283491,41.0499478
"Cornerstone School, The","254 Virginia Circle, Wilmington, 45177",9373825331,-83.8210948,39.4513338
Corpus Christi Academy,"23804 Ambour Drive, North Olmstead, 44070",4407169270,-81.884923,41.442993
Country Day Christian School,"8250 Spencer Lake Road, Medina, 44256",3306672314,-81.9864403,41.1114273
Countryside Christian School,"6490 W. Lincoln Hwy, Elida, 45807",4196423233,-84.22949,40.850613
Covenant Academy,"1145 Wittmer Road, Mansfield, 44903",4196317321,-82.6246661,40.7274823
Covenant Christian Academy,"345 Charleston Court, Fairfield, 45011",5139421844,-122.0405151,38.2491956
Covenant Christian Academy,"79 Maple Hill Drive, Chagrin Falls, 44022",4403383386,-81.3094679,41.4358561
Covenant Christian Academy,"4745 U.S. 127 N., Eaton, 45320",9374562177,-84.63170819999999,39.8105734
Covenant Christian School,"8001 Peters Pike, Vandalia, 45377",9372648600,-84.22996979999999,39.8651264
Cozaddele Baptist Academy,"10632 Elzroth Road, Goshen, 45122",5137222064,-84.15553039999999,39.271004
Crestwood Christian Academy,"333 Cementary Road, Wellington, 44090",4406473419,-82.20812900000001,41.1584836
Dayton International School,"7811 Mad River Road, Dayton, 45459",9374331120,-84.2162493,39.6379698
Dei Gratia Academy,"135 Crestwood Drive, Waverly, 45690",7409470123,-83.0103926,39.1091007
Detroit South High School,"26800 Woodmont Drive, #73, Perrysburg, 43551",2488541234,-83.5908084,41.54000509999999
DioSegunte,"20510 Lorain Road, Fairview Park, 44126",4406108027,-81.8470973,41.4486392
Divine Mercy Academy,"36057 Atlantic Avenue, North Ridgeville, 44039",4403539446,-82.0211084,41.4041032
Dominion Academy of Dayton,"925 N. Main Street, Dayton, 45405",9372248555,-84.19858959999999,39.7729042
"Eagles Academy, The","543 North Center Street, LaGrange, 44050",4403554835,-82.12012279999999,41.2461669
Eagle Academy of Columbus,"3643 Olde Ridenour Road, Gahanna, 43230",6144766061,-82.8817693,40.0311304
Eagle Preparatory Academy,"6810 Blacklick Eastern Road, Pickerington, 43147",6148330515,-82.7130055,39.9301362
Eastern Road Christian Academy,"2600 Eastern Road, Rittman, 44270",3309255437,-81.7827178,40.9873547
Ecclesia Academy,"25421 Tyndall Falls Drive, Olmstead Falls, 44138",4404540361,-81.9030451,41.35438509999999
Eleutheria Academy,"7654 Lealand Way, Columbus, 43235",3304613334,-83.0456858,40.1159911
Emmanuel Baptist School,"495 Old State Route 122, Lebanon, 45036",5139325205,-84.5177542,39.6129115
Enlighten Academy,"4425 Meadowview Drive , Canton, 44718",3304974739,-81.4577454,40.8452218
Evangel Academy Church School,"132 N. Smithville Road, Dayton, 45403",9372538342,-84.1364868,39.7693946
F.A.C.T. Academy,"7817 Blacklick Eastern Road, Pickerington, 43147",6145528161,-82.7324593,39.929063
Fairfield Christian School,"2470 Princeton Road, Hamilton, 45013",5137370841,-84.526684,39.3920138
Faith Academy,"118 Halstead Court, Delaware, 43015",7403620628,-83.1000265,40.31410839999999
Faith Academy,"204 W. Herrick Avenue, Wellington, 44090",4406474610,-82.2212504,41.1689046
Faith Christian Academy,"511 West Main Street, Wilmot, 44689",3303596215,-81.6345463,40.657534
Faith Christian Academy,"1584 Wilson Avenue, Lakemore, 44250",3308994119,-81.42893049999999,41.023832
Farmstead Christian,"1251 Township Road 115, Deshler, 43516",4192752327,-83.8691884,41.1489614
Faville Christian Academy,"2260 S. Dugan Road, Urbana, 43078",9375398269,-83.7163851,40.0768794
Fayette Christian School,"1315 Dayton Avenue, Washington C.H., 43160",7403357262,-83.4608957,39.5399583
Fearon Academy,"2859 Township Road 179, Bellefontaine, 43311",9379356571,-83.72883759999999,40.3315602
Firelands Christian Academy,"3809 Maple Avenue, Castalia, 44824",4196848642,-82.7883447,41.3963506
Firestone Classical Academy,"10080 Firestone Lane, Macedonia, 44056",3304680717,-81.52651379999999,41.3352855
Fisherman's Peace,"1415 Graceland Avenue, Findlay, 45840",4198897316,-83.6371499,41.0231949
Foster Academy,"3832 Silverwood Drive, Stow, 44224",3306882824,-81.4480265,41.1708231
Foundations Christian Academy,"854 Silliman Road, Plymouth, 44865",4196870980,-82.61362609999999,41.014598
Fountain City Christian School,"120 S. Beech Street, Bryan, 43506",4196362333,-84.55438219999999,41.4734266
"Fourth Day Institute for Autodidaction, The","1621 Merl Avenue, Cleveland, 44109",2163985385,-81.6913912,41.42469639999999
Franklin Furnance Christian Academy,"100 Seneak Avenue, Franklin Furnace, 45629",7403549301,-82.8486753,38.6339207
Freedom Academy,"12201 Wayland Avenue, Cleveland, 44111",2162529718,-81.77293209999999,41.4504087
French Creek Christian Academy,"36602 Kinzel Road, Avon, 44011",4409343323,-82.0261965,41.4424945
Full Life Academy,"146 Purple Finch Loop, Pataskala, 43062",7409273007,-82.6752412,39.9700024
Galaxie Learning Academy,"2505 S. Dayton-Brandt Road, New Carlisle, 45344",9378451652,-84.05724,39.9658639
Garret Academy,"2465 Addyston Road, Akron, 44313",3307148809,-81.60363459999999,41.1164944
Garrison Global Academy for Legal Study,"7752 Montgomery Road, Suite 55, Cincinnati, 45236",5135261293,-84.38445970000001,39.1953293
Gateway Christian Academy,"661 East Exchange Street, Akron, 44306",3302539443,-81.49971169999999,41.07146520000001
Genesis Christian School,"4154 Klopfenstein Road, Bucyrus, 44820",4195626131,-82.8829258,40.8556628
Gentle Shepherd School,"4564 West Ranchview Avenue, North Olmstead, 44070",4407851059,-81.9084187,41.4229779
Germantown Christian Schools,"9440 Eby Road, Germantown, 45327",9378557334,-84.3632824,39.608379
Gerrick Christian School,"7705 York Road, Parma, 44130",4404765820,-81.7591757,41.3566711
Glen's Crossing Academy,"2269 Reimer Road, Wadsworth, 44281",3303354319,-81.7694309,41.0554807
"God's Teen School, Inc.","32 Buxton Avenue, Springfield, 45505",9373221157,-83.7716713,39.9224912
Good Shepherd Academy,"52611 Betts Road, Wellington, 44090",4409357258,-82.3352489,41.2153023
Good Shepherd Academy,"152 W. Grayling Drive, Akron, 44333",3306203502,-81.6087518,41.1331348
Good Shepherd School,"8700 State Route 619, Louisville, 44641",3309350623,-81.2331481,40.9515313
Goodview Academy,"1913 Pilgrim Street, Akron, 44305",3307307514,-81.4543954,41.0708162
Gospel Baptist School,"6235 Clingan Road, Poland, 44514",3307570736,-80.5907531,41.0275158
Gospel Haven Academy,"6871 State Route 241, Millersburg, 44654",3306740752,-81.8493299,40.6000834
Grace Academy,"6360 N. Ludlow Road, Cable, 43009",9374654143,-83.6984907,40.2005768
Grace Academy,"2060 South Jefferson Avenue, Defiance, 43512",4197826391,-84.3613144,41.2566548
Grace Academy,"1000 Howard Street, Mount Vernon, 43050",7404853399,-82.46899289999999,40.3877761
Grace Learning Center,"100 Grace Drive, Xenia, 45385",3973827429,-83.95565549999999,39.6575589
Grace Prep School,"1263 Harmony Drive, Wadsworth, 44281",3303366550,-81.729748,41.0573829
Graff Academy,"5263 Fischer Road, Clarksville, 45113",9372891903,-84.0189111,39.3456531
Grand Lake Christian School,"1001 Holly Street, Suite A, St. Mary's, 45885",4193009001,-84.406802,40.5495561
Grantleigh Road Academy,"1374 Grantleigh Road, South Euclid, 44121",2163824714,-81.5323679,41.5225635
Hametown Christian Academy,"4774 S. Hametown Road, Norton, 44203",3308257891,-81.63638689999999,41.0274472
Hamilton Christian Academy,"6139 Sidley Road, Thompson, 44086",4402415133,-81.015442,41.7072564
Harmony Christian School,"11906 Lower Valley Pike, Medway, 45341",9378795259,-84.0411202,39.8634703
Harvest Temple Christian Academy,"1022 S. Main Street, Clyde, 43410",4195478251,-82.97292159999999,41.2953363
Heartland Academy,"2577 Greely Chapel Road, Lima, 45804",4193034363,-84.0704009,40.7040476
Henry Johnson Academy for Scholars,"17419 Wayne Drive , Cleveland, 44128",2165928521,-81.5576502,41.439437
Heritage Baptist Academy,"77 Saxe Road, Mogadore Village, 44260",3306289559,-81.3911753,41.0676145
Heritage Christian School,"29541 East Belpre Pike Road, Coolville, 45723",7406673149,-81.73515569999999,39.2314504
Heritage Christian School,"4403 Tiederman Road, Brooklyn, 44144",2164767976,-81.7574022,41.43742400000001
Heritage Christian School,"2000 Broad Avenue, Findlay, 45840",4194249511,-83.6650131,41.06405460000001
Heritage Christian School,"193 Marion-Williamsport Road E., Marion, 43302",7403826248,-83.1282504,40.6143142
"Heritage Private School, Inc.","9060 Yoder Road, Sterling, 44276",3306692900,-81.8100959,40.9096384
HGP Academy,"319 Cowan Creek Road, Clarksville, 45113",9377287375,-83.9554276,39.410343
High Place Christian Academy,", , ",6144395570,,
High Street Christian Academy,"7399 North High Street, Columbus, 43235",4168885121,-83.01754849999999,40.1141573
Hilltop Academy,"6770 Broadview Road, Parma, 44134",2165242056,-81.6852103,41.3811256
Hilltop Academy,"316 N. Springhill Drive, Macedonia, 44056",3304681737,-81.5223342,41.3307165
Holy Family Academy,"686 Stallion Way, Marysville, 43040",9377387097,-83.38697239999999,40.268083
Holy Family of Nazareth,"1531 Applewood Way, Uniontown, 44685",3308961267,-81.47915239999999,40.9456437
Holy Family School,"5944 Sandelwood Avenue, North Ridgeville, 44039",4403271690,-82.0147851,41.4046161
Honey Creek,"7373 S. Township Road 17, Tiffin, 44883",4193972560,-83.1316021,41.0167368
Hoover Christian Academy,"9979 Hoover Woods Road, Galena, 43021",7409659655,-82.86494569999999,40.1845961
Hope Academy,"9373 Stoneburner Road N.W., Crooksville, 43731",7409822102,-82.0053853,39.7426286
Hopewood Christian Academy,"5581 State Route 18, Wakeman, 44889",4199298493,-82.3864815,41.1828212
Hover Agape Academy,"4212 Sequoia Avenue, Grove City, 43123",6145932407,-83.11444379999999,39.8906711
Hoy Christian Academy,"31 N. Railroad Street, New London, 44851",4409352826,-82.3982249,41.0876476
Huber Heights Christian Academy,"7730 Taylorsville Road, Huber Heights, 45424",9372365883,-84.0953779,39.8594816
Huntington Christian School,"25585 McMillan Road, Wellington, 44090",4406475462,-82.2305911,41.1204918
Immaculate Conception Academy,"4510 Floral Avenue, Norwood, 45212",5137310154,-84.44920909999999,39.1580013
In the Light Christian School,"38058 Terrell Drive, North Ridgeville, 44039",4403094461,-82.04933319999999,41.3657996
Integrity Christian School,"825 Persimmon Place, Columbus, 43213",6148569225,-82.8304229,39.9633955
Isley Preparatory Academy,"2242 Heron Lane, Marion, 43302",7403862808,-83.06984059999999,40.5882462
Jabez Christian Academy,"17095 Heiland-Kies Road, Botkins, 45306",9373714343,-84.14580149999999,40.4476123
Jackson Catholic Academy,"8238 Grayson Green Street N.W., Massillon, 44646",3308373381,-81.504134,40.8669613
Jaeger House of Learning,"5817 Lathrop Place, Cincinnati, 45224",5135419030,-84.5519279,39.19750519999999
John Paul II Academy,"38220 Royalton Road, Grafton, 44044",4408227485,-82.06418610000001,41.3155914
Joliet Academy,"8480 Wildcat Road, Tipp City, 45731",9376670529,-84.17216379999999,39.9583892
"Jones Academy for Christ, The","1976 County Road 24 N., DeGraff, 43318",9375854903,-83.9205664,40.3184341
Judah's Pride Academy,"113 1/3 South Court Street, Circleville, 43113",7404743610,-82.9457989,39.6015342
Kaiser Johnson St. Francis School,"583 Prairie Rose Drive, Perrysburg, 43351",4198735491,-83.6718679,41.5402969
Keys Joy School,"1940 Clairmont Avenue, Akron, 44301",3307249779,-81.52516349999999,41.03386649999999
Kingdom Way Academy,"7457 Beach Road, Wadsworth, 44281",3302398929,-81.75447489999999,41.0711461
King's Academy,"348 Simcox Street, Wadsworth, 44281",3308196260,-81.738896,41.0338271
Koinonia Christian Arts Academy,"440 Trovitt Street, Columbus, 43203",6146495485,-82.97056979999999,39.9750821
L.A.D. School,"1500 Mozart Drive, Westlake, 44145",4408351015,-81.9178002,41.4646673
L.L. Academy,"2064 Ogden Road, Wilmington, 45177",9373836943,-83.9073172,39.4168174
Lake Erie Christian Academy,"5100 Shady Ridge Academy, Brooklyn Heights, 44131",2167413066,-81.6716277,41.4161136
Lakota Christian School,"7000 Summerhill Drive, West Chester, 45069",5137794316,-84.3896259,39.3450921
Land of Green,"12863 Main Street, Garrettsville, 44231",4176301365,-81.09673,41.2839062
Landmark Kiddie Kollege and Christian K/1,"1600 Glendale-Milford Road, Cincinnati, 45215",5137717335,-84.4450809,39.2601176
Legacy Christian Academy,"128 High Street S.E., Canal Fulton, 44614",3308543635,-81.5961189,40.890137
Liberty Christian Academy,"1210 Timbercrest Street, Youngstown, 44505",3307591025,-80.6458499,41.1659176
Liberty Christian School,"801 Bellefontaine Avenue, Lima, 45801",4192296266,-84.093654,40.7395961
Licking County Christian Academy,"81 Licking View Drive, Heath, 43056",7405223600,-82.4413378,40.0246809
Life Classical Christian School,"525 Maple Avenue, Hamilton, 45011",5135494428,-84.5572602,39.3966144
Lifelong Love of Learning,"1100 Concord Drive, Medina, 44256",3302415175,-81.83946999999999,41.1273223
Lima Christian Academy,"3180 W. Elm Street, Lima, 45805",4199992219,-84.1625576,40.7378593
Lima Christian School,"2435 N. Cole Street, Lima, 45805",4192294547,-84.128466,40.7721425
Lincoln Christian School,"52 Township Road 791, Nova, 44859",4196522413,-82.28078599999999,41.056311
Living Word Preparatory School,"8315 Greenlawn Avenue, Parma, 44129",4408851172,-81.7427857,41.4085123
Locust Grove School,"6531 North Urbana-Lisbon Road, Mechanicsburg, 43044",9378281635,-83.6284621,40.0096059
Logos Academy,"3101 Logan Way, Youngstown, 44505",3308890226,-80.6369623,41.14029
Logos Learning Center,"19459 Rolling Brook Lane, Columbia Station, 44028",4402366290,-81.9428898,41.2787407
"Lord's Light School, The","7944 English Oak Trail, Macedonia, 44056",3308017867,-81.4847284,41.2867526
Loughner Christian Academy,"3366 Wicklow Road, Columbus, 43204",6142748685,-83.0891906,39.9465671
Loveland Baptist School,"2288 Lilac Road, Loveland, 45140",5136836213,-84.2628654,39.3068555
Lux Mundi Academy,"3267 Deer Creek Trail, Richfield, 44286",3306597240,-81.64205820000001,41.266658
"Lyceum, The","1545 S. Green Road, South Euclid, 44121",2162979448,-81.5185715,41.5179059
Main Street Christian School,"9 N. 4th Street, McConnelsville, 43756",7409623877,-81.85543299999999,39.64910769999999
"Main Street Schoolhouse, Inc.","200 North F Street, Hamilton, 45013",5138680999,-84.5701089,39.4093923
Malachi's Children Christian School,"8558 Holiday Hills Drive, Cincinnati, 45255",5134743560,-84.3158053,39.085325
Maple Hill Christian Academy,"1144 Gulf Road, Elyria, 44035",4403656725,-82.0883527,41.4020309
Marcum Academy,"2245 Flickinger Hill Road, Wooster, 44691",3307495987,-81.9796878,40.83658190000001
Margaret T Academy,"36830 Royalton Road, Grafton, 44039",2678794199,-82.032157,41.3151451
Marietta Christian School,"4070 State Route 60, Marietta, 45750",7403735551,-81.462678,39.458433
Mars Hill Academy,"4230 Aero Drive, Mason, 45040",5137703223,-84.2904956,39.341577
Mars Hill Christian Academy,"1926 Windsor Place, Findlay, 45840",4194234877,-83.61052169999999,41.0452406
Martin Academy,"861 Edgar Lane, Brunswick, 44212",3302201238,-81.7943793,41.2524173
"Mary Mother, Queen of Apostles Catholic School","7544 Lake O'Springs Avenue, N.W., North Canton, 44720",3309668019,-81.45934179999999,40.890135
Mason Christian Academy,"5264 Blossom Street 2403, Hamilton, 45011",5133416276,-84.45002389999999,39.3170612
"Master's Plan Academy, The","24500 Eagle Pointe Court, Columbia Station, 44028",4402369672,-81.9011685,41.3236577
McKenzie Academy,"3712 S. Beechgrove Road, Wilmington, 45177",9373821337,-83.8783828,39.42711329999999
Meadow Lark Christian Academy,"1095 Meadow Lark Drive, Enon, 45323",9378640477,-83.9279851,39.8528455
Mecaskey Academy,"898 Keystone Drive, Cleveland Heights, 44121",2165339294,-81.5362849,41.5359611
Memorial Christian,"717 N. Hall Street, Ottawa, 45875",4196151049,-84.0389424,41.0259544
Mentor Christian School,"8600 Lake Shore Blvd., Mentor, 44060",4402573172,-81.3299712,41.7171724
Messiah Covenant Academy,"189 Citation Drive, Pataskala, 43062",7409270646,-82.6468091,40.0199492
Middleton Academy,"5741 West U.S. Hwy 22 & 3, Wilmington, 45177",5136785579,-84.16211589999999,39.3579817
Midwest Literati Academy,"357 Raff Road N.W., Canton, 44708",3304791821,-81.4170166,40.80281979999999
Milford Christian Academy,"1365 Woodville Pike, Milford, 45150",5135751708,-84.2105053,39.2007916
Mogadore Christian Academy,"3603 Carper Avenue, Akron, 44312",3306288482,-81.39617919999999,41.0388552
Most Holy Family Academy,"1140 Pearce Drive, Mansfield, 44906",7403419480,-82.5558432,40.7521378
Mother of Divine Grace,"12790 Kingsway Drive, Chesterland, 44026",4407293255,-81.3711975,41.521305
Mother Teresa of Calcutta School,"5341 Stonetrace Drive, Cincinnati, 45251",5133858452,-84.61631009999999,39.30604599999999
Mount Pleasant School,"6660 Martinsburg Road, Mount Vernon, 43050",7403973139,-82.4133751,40.3281392
Mt. Hope Christian Academy,"9200 Strimple Road, Harrison, 45030",5133670450,-84.7211483,39.2470077
Mustard Seed Academy,"1456 Riverbend Drive, Defiance, 43512",4197825524,-84.3911279,41.3108764
New Horizons Academy,"220 Lawrence Avenue, Wauseon, 43567",4193357272,-84.1524996,41.5447796
New Life Christian Academy,"4080 Call Road, Perry, 44081",4402593850,-81.1298204,41.7613945
Northern Ohio Christian Academy,"1936 Chenango Road, Wakeman, 44889",4406533695,-82.366687,41.19041199999999
Northfield Baptist Christian School,"311 W. Aurora Road, Northfield, 44067",3304678918,-81.55016379999999,41.3149732
Northside Christian School,"2655 Schrock Road, Westerville, 43081",6148821493,-82.9459546,40.1084206
Northside Christian School,"8921 N. Dixie Drive, Dayton, 45414",9378901361,-84.1996628,39.8608105
Northumbria Community Christian School,"407 Martinsburg Road, Mount Vernon, 43050",4197880390,-82.47736979999999,40.3752891
Nova Academy,"844 S. Broadleigh Road, Columbus, 43209",6142370699,-82.9227026,39.9531525
Oakwood Christian School,"124 Eastern Heights Blvd., Elyria, 44035",4403224630,-82.0995398,41.3633897
Olde Town Christian School,"132 Executive Court, Westerville, 43081",6142122741,-82.93618579999999,40.1323708
Oliver Wolcott Academy,"558 W. Front Street, Perrysburg, 43551",4198730339,-83.6410174,41.5559942
Operation Rebirth Christian Boarding Academy,"1638 Apple Road, St. Paris, 43072",9376635765,-83.97190499999999,40.15055
Ottawa County Christian Academy,"325 S. Toussaint-Portage Road, Oak Harbor, 43449",4198983888,-83.1635012,41.50979650000001
Our Lady of Fatima Academy,"10736 LaGrange Road, Elyria, 44035",4404586240,-82.1187834,41.33312
Our lady of Grace  ,"4816 West 211 Street, Fairview Park, 44126",4403311029,-81.85481659999999,41.4365773
Our Lady of Grace Catholic School,"5247 S. Arlington Road, North Canton, 44720",3308960735,-81.49396399999999,40.9265199
Our Lady of Guadalupe Academy,"15412 Lydian Avenue, Cleveland, 44111",2166714479,-81.805377,41.4563211
Our Lady of Light Academy,"4529 Secretariat Court, Avon, 44011",4404765672,-82.0544618,41.4228448
Our Lady of Victory School,"706 Bailey's Trail, Dayton, 45440",9374315348,-84.0960056,39.6720868
Padre Pio Academy,"12920 Madison Avenue, Lakewood, 44107",2165710174,-81.7785739,41.4772146
Park Faith Academy,"11312 Drake Road, North Royalton, 44133",4402376201,-81.77150309999999,41.291906
Pax Christi School,"3245 Nagle Road, Avon, 44011",4409370069,-81.9888684,41.4431388
PCS Academy,"2920 Plum Creek Parkway, Medina, 44256",3307235696,-81.8083023,41.1956937
Petra Christian Academy,"25 Clearwater Drive, Brunswick, 44212",4403341777,-81.8169922,41.2749397
Phroneos Academy,"2740 Slabtown Road, Lima, 45801",4192258725,-84.0509182,40.7779719
Pilgrim Christian School,"2100 W. Breese Road, Lima, 45806",41932244333,-84.1437404,40.6882046
Pineview Christian Acadmey,"10395 Scott Road, Sidney, 45365",9374989294,-84.1914372,40.3515005
Pinkston Acres Academy,"1666 Lynnurst Road, Columbus, 43229",7405138385,-82.97338359999999,40.0908515
Piqua Christian School,"830 Covington Avenue, Piqua, 45356",9377738627,-84.2543018,40.1455981
Pleasant Places High School,"10988 Midway Road, South Solon, 43153",9374629196,-83.61124939999999,39.79315890000001
Pope Pius Academy,"703 Parkview Court, Huron, 44839",4196163191,-82.5702724,41.3926536
Prasse Road Academy,"4425 Prasse Road, South Euclid, 44121",2162199449,-81.5207051,41.5239763
Proverbs Christian Academy,"5741 Cady Road, North Royalton, 44133",4407737667,-81.72692649999999,41.2850787
Providence Academy,"114 N. Main Street, North Fairfield, 44855",4197742074,-82.6114095,41.1070491
Providence Christian Academy,"6485 Arlington Avenue N.W., Massillon, 44646",3308309440,-81.5011323,40.8752115
Providence Christian Academy,"5884 Shawnee Avenue, Walbridge, 43465",4198387361,-83.5093735,41.5559777
Redwine Academy,"2031 Dallas Avenue, North College Hill, 45239",5134842617,-84.56323499999999,39.2152013
Reid Academy,"2551 Shoreline Drive, Apt. B4, Akron, 44314",3305352885,-81.5586842,41.0284851
RiverBirch Academy,"1761 Turnberry N.W., Canton, 44708",3304774233,-81.450923,40.8188514
Robins Trace Academy,"3230 Robins Trace, Akron, 44319",3309580160,-81.50222579999999,40.9832214
Rolling Hills Christian School,"19963 State Route 698 , Jenera, 45841",4193269304,-83.727054,40.9033591
RW Faith Academy,"4251 Custar Road, Deshler, 43516",4192788408,-83.8439022,41.2157695
Sacred Heart Academy,"6505 County Road 109, Mt. Gilead, 43338",4195607274,-82.7039195,40.5337586
Sacred Heart of Jesus Academy,"1552 Oak Tree, Brunswick, 44212",3302254654,-81.8274101,41.2331947
Sacred Heart of Jesus Catholic School,"2065 Beaumont Avenue N.W., Massillon, 44647",3308378002,-81.5563647,40.8143942
Sacred Heart of Jesus School,"450 Dennison Ave, Akron, 44312",3307148163,-81.4285723,41.0449831
Saint Mary's Consolidated School,"23185 West State Route 51, Genoa, 43430",4195598398,-83.3808796,41.546628
Saints and Angels Academy,"2340 Banyon Drive, Beavercreek, 45431",9374297791,-84.03729059999999,39.7571763
School of Wisdom and Knowledge,"3312 Terrance Lane , Findlay, 45840",4194230241,-83.64625199999999,41.0798216
Shadesville Christian Academy ,"4800 Lockbource Road, Columbus, 43207",6144916592,-82.9694358,39.8623923
Shekinah Christian Academy,"1875 Hyde Shaffer Road, Bristolville, 44402",3308892912,-80.86912819999999,41.3708566
Shekinah Christian School,"10040 Lafayette-Plain City Road, Plain City, 43064",6148733130,-83.3120445,40.0881637
Simple Path Academy,"6930 Parma Park Blvd., Parma Heights, 44130",4405399257,-81.77628829999999,41.37538360000001
Skyward Academy,"2033 Walnut Road, Loveland, 45140",5136008476,-84.2593833,39.2978016
"Smith School, The","6940 Palmetto Street, Cincinnati, 45227",8777182731,-84.37533560000001,39.1513289
Solomon Academy,"56 Townes End Drive, Wadsworth, 44281",3303361212,-81.6897444,41.0628842
Solomon Christian Academy,"8219 Shawnee Forest Drive, Findlay, 45840",4194238292,-83.57319009999999,41.0478119
Sonlight Christian Academy,"321 Audubon Street, Pickerington, 43147",6148336647,-82.7889974,39.8675146
South Ridge Christian Academy,"924 Center Road, Conneaut, 44030",4405935840,-80.57064,41.904261
Southmore Christian Academy,"3551 Babbitt Road, Blacklick, 43004",6149339427,-82.77806849999999,40.0491012
Speiro Academy,"500 N. 5th Street, Martins Ferry, 43935",7407380203,-80.7188863,40.1017778
Spirit Academy,"608 Ridgecrest Road, Akron, 44303",3308655873,-81.5433372,41.1129089
Spiritus Sanctus,"5800 Brookside Drive, Cleveland, 44144",2163985940,-81.7271567,41.4468807
Spring Valley Christian School,"4676 W. 11th Street, Cleveland, 44109",2166616384,-81.6879457,41.4291336
St. Bellarmine Academy ,"223 Sunflower Drive, Brunswick, 44212",3302258081,-81.8259159,41.2696137
St. Edmund Campion Academy,"4100 Taylor Avenue, Cincinnati, 45209",5138710331,-84.4278278,39.1526083
St. Gerald Majella School,"6415 Mandalay Drive, Parma Heights, 44130",4408854162,-81.7746839,41.3895476
St. Gertrude the Great School,"4890 Rialto Road, West Chester, 45069",5136454216,-84.46361399999999,39.3241462
St. Joseph Academy,"3515 Little Blvd., Norton, 44203",3307140239,-81.6548432,41.0380776
St. Jude's Academy,"4918 Harrisburg-Georgesville Road, Grove City, 43123",6148521368,-83.1974905,39.8625848
St. Margaret Mary School,"35114 Mills Road, Avon, 44011",4403271884,-82.00748159999999,41.4190572
St. Matthew Academy,"17740 Galehouse Road, Doylestown, 44230",3306587264,-81.67017299999999,40.9364938
St. Maximilian Kolbe School,"5572 Bridgetown Road, Apt. 6, Cincinnati, 45248",5135745060,-84.6321747,39.1592761
St. Peregrine Academy,"3086 W. Streetsboro Road, Richfield, 44286",3306596242,-81.6018361,41.2430889
St. Peter Julian Eymard School,"3119 Winsted Drive, Brunswick, 44212",3302200573,-81.7980525,41.2542389
St. Therese of the Little Flower School,"6359 Daleview Road, Cincinnati, 45247",5139234244,-84.6553301,39.2120488
St. Thomas Aquinas Academy,"3996 Graham Drive, Dayton, 45431",9374271935,-84.0805946,39.7639243
Steart Christian Academy,"329 Cleveland Street, Hamler, 43534",4192741154,-84.0329543,41.2270651
Stonewall Academy,"6118 E. New Market Road, Hillsboro, 45133",9374024066,-83.6590093,39.133289
Streamview Academy,"2468 Columbia Road, Brecksville, 44141",3306590740,-81.5951552,41.2701078
Strong Tower Christian Academy,"34925 Clear Creek Drive, North Ridgeville, 44039",4403530757,-82.0052671,41.3699762
Tallmadge Kiddie Kollege/F.A.C.T. Academy,"199 Souty Avenue, Tallmadge, 44278",3306339049,-81.4390054,41.095275
"Taylor Academy, The","2386 Brand Road, Cable, 43009",9378694224,-83.6152828,40.1580946
Temple Christian Academy,"21453 Floralwood Drive, Howard, 43028",7403979673,-82.35811540000002,40.4536192
Temple Christian School,"1617 Ohmer Avenue, Dayton, 45410",9372535288,-84.1415045,39.7499237
Temple Christian School,"752 N. Stewart Road, Mansfield, 44905",4195899707,-82.47432599999999,40.778223
Thompson Bible Institute,"13445 W. Twp. Road, 178, Bellevue, 44811",4194832023,-82.9087879,41.2265442
Tipp City Christian School,"445 W. Evanston Road, Tipp City, 45371",9376679167,-84.2080058,39.9450475
Tolle Lege Academy,"325 Westgate Drive, Mansfield, 44906",4195242799,-82.5560967,40.7510518
Torah Beis Academy,"3659 S. Green Road 100, Beachwood, 44122",2163733456,-81.5161822,41.4604822
Treasures of Grace Academy,"5849 Forestview Drive, Columbus, 43213",6142364366,-82.8449411,39.9750694
Trinity Lutheran Christian Preschool & Kindergarten,"135 East Mount Street, Circleville, 43113",7404749987,-82.9460133,39.600618
Trisler Christian Academy,"9160 Lochard Road, Sidney, 45365",9374984574,-84.117228,40.3338271
Trotwood-Liberty Christian Academy H.S.,"4760 Fishburg Road, Huber Heights, 45424",9372489773,-84.13762439999999,39.8403161
Truth Christian School,"38050 State Route 683, Hamden, 45634",7403845227,-82.525475,39.1711247
Turner Learning Center,"3185 Winterset Drive, Beavercreek, 45440",9374263611,-84.05461179999999,39.6892945
Tykes Academy,"10107 Saddle Bridge Drive S., Whitehouse, 43571",4194190482,-83.7834122,41.5210842
Valor Academy/Valor Learning Center,"124 C Cleveland Road, Norwalk, 44857",4196600533,-82.5965173,41.2465467
Veritas Academy,"6200 Linworth Road, Worthington, 43085",6148852810,-83.04916329999999,40.09149130000001
Veritas Christian Academy,"4828 County Highway 96, Carey, 43316",4193966842,-83.4012424,40.9227912
Victory Baptist School,"45155 Telegraph Road, Elyria, 44035",4403236654,-82.1965163,41.3672525
Victory Christian School,"960 Children's Home Road, Urbana, 43078",9376521133,-83.7306222,40.1214686
Vineyard Elementary and High School,"7499 County Road 2-2, Swanton, 43558",4198253747,-83.9124476,41.5812019
Washington Academy,"144 High Street, Ashland, 44805",3307490256,-82.3154917,40.8613612
Water's Edge Academy,"3918 Jaycox Road, Avon, 44011",2162105200,-82.0036274,41.4322962
Waynesville Christian School,"1009 Lytle Road, Waynesville, 45068",5138970418,-84.0920266,39.539796
Wayside Christian School,"2345 Kerstetter Road, Bucyrus, 44820",4195625930,-83.00315189999999,40.7960104
West Liberty Christian School,"2601 Sweetwater Road, Findlay, 45840",4194254268,-83.6666126,41.07074950000001
Westside Christian Academy,"23096 Center Ridge Road, Westlake, 44145",4403311300,-81.8766283,41.4579833
Westwood Christian School,"3035 Irvella Place, Cincinnati, 45238",5134294261,-84.6029251,39.1370008
Whetstone Baptist Academy,"994 Poe Road, Bucyrus, 44820",4199852752,-82.9154039,40.7442232
Whetstone Christian Academy,"59 Clearwater Drive, Brunswick, 44212",3302204040,-81.817099,41.2743044
Williams Home School Academy,"129 Elm Hill Drive, Dayton, 45415",9372753390,-84.2376555,39.8251085
Willow Creek Learning Center,"1322 W. Western Reserve Road, Youngstown, 44514",3307856871,-80.6749694,40.9894752
Willow Farms Christian Academy,"2125 State Route 48, Ludlow Falls, 45339",9376985125,-84.3382235,40.0065606
Winton Place Baptist Church and Academy,"4600 N. Edgewood Avenue, Cincinnati, 45232",5136813470,-84.51598690000002,39.1723314
Wisdom Builders School,"1725 Bryden Road, Columbus, 43205",6142535560,-82.9536177,39.9599518
Woodland Academy,"2569 Reeder Road, Blanchester, 45107",5137225769,-83.9081242,39.3388796
"Woodrow Christian Academy, The","4506 Woodrow Avenue, Parma, 44134",4408867088,-81.7164301,41.395359
"Woods Academy, The","2799 West River Road S., Elyria, 44035",2167447033,-82.1251614,41.338542
Woodward Christian Academy,"994 E. Sunview Drive, Hamilton, 45013",5138969669,-84.57873699999999,39.3897353
Xenia Christian Academy,"1679 West Second Street, Xenia, 45385",9373727804,-83.95883429999999,39.6812011
Yahweh Academy,"6964 Broadview Road, Parma, 44134",2169010981,-81.6858759,41.37638099999999
Yellow Creek Christian Academy,"23203 Hammansburg Road, Deshler, 43516",4192781808,-83.8463694,41.2260466
Zoe Academy,"1606 Tower Blvd., Lorain, 44053",4402823427,-82.19232699999999,41.4326741
Garrison Global Academy for Legal Study,"7752 Montgomery Road, Suite 53, Cincinnati, 45236",5139196738,-84.38445970000001,39.1953293
Lighthouse Christian Academy,"7085 Gratis Jacksonburg Road, Camden, 45311",9377873618,-84.5370446,39.63762630000001
"Lord's Light School, The","220 Deerwalk Circle, Marietta, 45750",7404343393,-81.4591612,39.4686327
Mason Christian Academy,"3511 Montgomery Road #5, Loveland, 45140",5133449019,-84.2861616,39.2989159
Mother of Divine Grace,"11012 Riverwood Drive, Grafton, 44044",4404586197,-82.08846969999999,41.3175391
Anchor Baptist School,"3699 Clime Avenue, Columbus, 43228",6142741181,-83.1273705,39.9571056
Angelos Academy,"5418 Winter Brook Drive, Valley City, 44280",3302203817,-81.8810348,41.2281665
Ashbrook Drive Girls Academy,"696 Ashbrook Drive , Wadsworth, 44281",3303341070,-81.7082843,41.0169088
Beach City Bible Methodist Christian School,"9814 Manchester Avenue S.W., Beach City, 44608",3307562408,-81.59218899999999,40.672156
Central Christian Academy,"3525 W. 25th Street, Cleveland, 44109",2163517667,-81.70046719999999,41.4583208
Christian Classical Academy,"18799 Rivers Edge Drive E., Chagrin Falls, 44023",4409158707,-81.35302539999999,41.3588325
Disciplina Plus Academy,"4210 Chalfonte Drive, Beavercreek, 45440",9379743456,-84.09317949999999,39.6930488
"Faville Christian Academy, The","422 Kent Drive, Apt. 8, Bellefontaine, 43311",9375398268,-83.75586009999999,40.3356166
Full Life Academy,"3655 Beechton Road, Columbus, 43232",6142909931,-82.8668175,39.902067
Glenmar Academy,"1703 Glenmar Drive, Lancaster, 43130",7408011241,-82.6116839,39.7349058
Grace Academy,"10107 Saddle Bridge Drive South, Whitehouse, 43571",4194914503,-83.7834122,41.5210842
Grace Christian Academy,"4717 State Hwy 53 N., Upper Sandusky, 43351",4192942077,-83.2729488,40.9235073
Hamilton Christian School,"40 Wrenwood Drive, Hamilton, 45013",5138636705,-84.6010001,39.4079836
Harrisville Township Christian Academy,"8334 Harris Road, Lodi, 44254",3309482927,-81.9916373,41.0457705
Harvest Academy,"769 Johnson Road, Wadsworth, 44281",3303360804,-81.716537,41.0074453
Heart of Christ Christian Education Institute,"334 Rowan Drive, Berea, 44017",4402432011,-81.8691951,41.3808387
"Hillendale School, The","2309 Reimer Road, Wadsworth, 44281",3303359126,-81.7706913,41.0553167
Hilltop Christian Academy,"524 Hilltop Drive, Bellefontaine, 43311",9375991142,-83.74035390000002,40.3685324
"Integrity Christian School, Inc.","310 Everett Avenue, Newark, 43055",7403492711,-82.3881971,40.0637802
Lake Erie Christian School,"3009 Hillcrest Avenue, Cleveland, 44109",2167419862,-81.703655,41.4302158
Legacy Christian Academy,"6948 Road 10, Leipsic, 45856",4199432707,-84.0541989,41.0802047
Legacy Preparatory Christian School,"2445 South Arlington Road, Akron, 44319",3306441400,-81.4913261,41.0048227
Light of Christ School ,"10660 Hawke Road, Columbia Station, 44028",4402016081,-81.9723595,41.332864
Meyer School,"10186 Donald Road, Georgetown, 45121",9375154734,-83.781795,38.9182368
Miamisburg Christian Academy,"8500 S. Union Road, Miamisburg, 45342",9378666226,-84.3077689,39.6214802
Padre Pio Academy,"1375 West Clifton Avenue, Lakewood, 44107",2162264854,-81.8223508,41.48473140000001
Sacred Heart of Jesus Middle and High School,"14660 Alexander Road, Walton Hills, 44146",4402326909,-81.5792132,41.3576864
Saint Phoebes' Academy,"445 South Vine Street, Marion, 43302",7402624309,-83.1243748,40.5817092
Salem Wesleyan Academy,"1095 Newgarden Avenue, Salem, 44460",3303324819,-80.8621289,40.8954536
Salve Regina Academy,"2340 Salvatore Place, Hamilton, 45013",5133300510,-84.63705999999999,39.3969168
Scholi Petra Catholic School,"171 Townes End Drive, Wadsworth, 44281",3303354701,-81.6943424,41.0639402
Sugar Creek Christian Academy,"4824 State Route, Ironton, 45638",7405332215,-82.6829406,38.5367471
Temple Christian Academy,"1150 State County Road 198, Fremont, 43420",4193327623,-83.0652248,41.4122152
Trivium School,"9115 Dolphin Street S.W., Bolivar, 44612",3307560162,-81.5326221,40.6506906
Uniontown Christian Academy,"2989 Meadowland Drive, Uniontown, 44685",3306996223,-81.4151277,40.9894265
Woodland Creek Christian Academy,"3685 Cinnamon Way, Westlake, 44145",4406860051,-81.90993259999999,41.4376772
Zanesville Christian School,"2400 Chandlersville Road, Zanesville, 43701",7404542509,-81.971527,39.9268077
Areopagus Christian Academy,"5005 Dolloff Road, Cleveland, 44127",2164413761,-81.65630949999999,41.470576
Augustine Academy,"400 E. College Street, Oberlin, 44074",4407753777,-82.20277779999999,41.2917723
Bellbrook Christian Academy,"4067 Shadowleaf Drive, Bellbrook, 45305",9376049525,-84.09218930000002,39.6413361
Bradner Christian Academy,"222 East Parklane Avenue, Bradner, 43406",4192880135,-83.4420529,41.3255804
Brownhelm Christian Academy,"49029 Stick Road, Amherst, 44001",4409852027,-82.2716964,41.35745439999999
Burton Christian School,"13155 Longwood Avenue, Burton, 44021",4408349325,-81.1681822,41.4730308
Calvary Free Will Baptist Academy,"3969 State Route 132, Batavia, 45103",5137359088,-84.196947,39.056406
Central Baptist Academy,"1955 Frank Road, Columbus, 43223",6142793115,-83.05463759999999,39.919334
Christian Heritage,"2730 Farmers Road, Wilmington, 45177",9376852027,-83.7786859,39.372497
Cleveland Christian Academy,"3800 Bridge Avenue, Cleveland, 44113",2162817050,-81.7126246,41.4827534
Covenant Heritage Academy,"2918 Innisbrook Drive, Findlay, 45840",4194290388,-83.6764374,41.07499430000001
"Cox ""08"" Christian School","4314 Brownway Avenue, Cincinnati, 45209",5132458128,-84.4307446,39.1547979
Crosswoods Christian Academy,"5679 Tarlton Road, Circleville, 43113",7404743500,-82.9274662,39.5642202
Eastwicke Academy,"4440 Eastwicke Blvd., Stow, 44224",3306782418,-81.3992849,41.1777713
"Edgerton School, The","2447 Edgerton Road, University Heights, 44118",2169321329,-81.54456909999999,41.4927807
Enterprise Christian Academy,"5022 Bridge Avenue, Cleveland, 44102",3308021690,-81.72215949999999,41.4809193
Faith Academy of Olmsted Falls,"26922 Heatherwood Circle, Olmstead Falls, 44138",4404278096,-81.92567,41.3846242
Faith Christian Academy ,"406 E. Perkins Avenue, Sandusky, 44870",4196215595,-82.6931694,41.432739
Faville Christian Academy,"13162 Mahan Road, Saint Paris, 43072",9376635522,-84.007212,40.166931
Five Stones Christian Academy,"134 Middle Street, Wellington, 44090",4406471908,-82.2233309,41.1703735
Fountain Academy,"7735 Erie Street, Sylvania, 43635",4195085457,-83.7222977,41.7182388
Freedom Academy,"3154 Duvall Road, Lockbourne, 43137",7402482902,-82.95566459999999,39.7722842
Freedom Christian Academy,"117 Ross Avenue, Hamilton, 45013",5137379384,-84.5685556,39.4017921
Freedom Christian Academy,"1067 US Route 68 South, Xenia, 45385",9373729399,-83.9065105,39.6510583
Freedom Christian Academy,"7308 Upper Clarenton Drive, New Albany, 44047",7405046786,-82.79607589999999,40.10908879999999
Grace Baptist School ,"3744 State Route 37 W., Delaware, 43015",7403693813,-83.1376765,40.3220062
Grace Community School,"340 Lake Street, Delaware, 43015",7403635800,-83.0562301,40.3080189
Greenfield Christian School,"910 South Street, Greenfield, 45123",7402533045,-83.3943165,39.34663159999999
Guilford Academy,"8650 Markley Drive, Wadsworth, 44281",3303368704,-81.8116973,41.0418163
Heartland School,"725 Lincoln Avenue, Troy, 45373",9373320041,-84.2111333,40.0332405
Hilltop Christian Academy,"8046 County Road 5, West Liberty, 43357",9374650185,-83.7352081,40.2817831
Integrity Christian Academy,"1954 Wise Road, North Canton, 44720",3308969115,-81.45961179999999,40.9438599
Jubilee Christian School,"10516 Frazeysburg Road, Dresden, 43821",7407543330,-82.01998,40.1068357
Kindlebrook Christian Academy,"5802 Cementary Road, Kingsville, 44048",4402242675,-80.6669811,41.8847108
KT School,"9094 Singing Hills Drive, Warren, 44484",3308564395,-80.72615069999999,41.24610200000001
Land of Green,"12863 Main Market, Garrettsville, 44231",4402793107,-81.02471919999999,41.3433113
LaValle School,"3200 Woodside Drive, Fairfield, 45014",5138745655,-84.51732229999999,39.3217924
Liberty Christian School,"8970 Kingsridge Drive, Dayton, 45458",9376097311,-84.2235194,39.629864
"Liberty Christian School of Stark County, Inc.","3839 Manchester Avenue S.W., Massillon, 44647",3308302444,-81.59551929999999,40.7550325
Life Classical Christian School,"532 Ringgold Street, Cincinnati, 45202",5137217944,-84.5050745,39.1151946
Mason Christian Academy,"3480 Lawrenceburg Road, Lot 6, North Bend, 45052",5135035047,-84.8048811,39.1587924
Mentor Heritage Christian Academy,"8250 Garfield Road, Mentor, 44060",4402550440,-81.3543042,41.6453569
Mesivta Of Toledo,"3853 Woodley Road, Toledo, 43606",4194755102,-83.6366267,41.6893523
New Life School of Excellence,"9005 E. Main Street, Reynoldsburg, 43068",6145018363,-82.75448659999999,39.955663
Oak Openings High School,"11965 Monclova Road, Swanton, 43558",4198253031,-83.8294353,41.5600356
Our Lady of the Rosary School,"143 Laquineo Street, Findlay, 45840",4192800350,-83.6479351,41.0524082
Pathway Christian Academy,"118 Sloboda Avenue, Mansfield, 44906",4197472839,-82.5969679,40.7565001
Peoples Baptist Academy,"223 Vanderbilt Road, Mansfield, 44907",4197569538,,
Pershing Christian Home School,"142 Pershing Avenue N.E., North Canton, 44720",3304971776,-81.3949049,40.876856
Pheasant Hill Academy,"7823 Pheasant Hill Drive, West Chester, 45069",5137775321,-84.43644669999999,39.3591602
Pinkston Acres Academy,"1562 Hanover Road, Delaware, 43015",7404173266,-83.0375222,40.3478788
Reid Academy,"966 East Avenue, Akron, 44307",2162204853,-81.54789099999999,41.0721481
Remnant Academy,"2105 Schappelle Lane, Cincinnati, 45240",5137937823,-84.558489,39.2829463
River of Light Academy,"13807 W. Lake Road, Vermilion, 44089",4409672022,-82.3845541,41.417766
Riverside Christian Academy,"193 S. Rocky River Drive, Berea, 44017",4402342427,-81.8530304,41.3609546
Ross County Christian Academy,"2215 Egypt Pike, Chillicothe, 45601",7407714532,-83.0262772,39.3753723
Simple Path Academy,"6930 Parma Park Blvd., Parma, 44130",4408848586,-81.77628829999999,41.37538360000001
Soaring Eagles Academy,"5255 Summerset Drive, Tipp City, 45371",9376844705,-84.12267159999999,39.885151
St. Elizabeth Ann Seton,"5583 Whispering Oak Blvd., Hilliard, 43026",6142197279,-83.160901,40.0076509
St. Peter Julian Eymard School,"10683 Lafayette Drive, Parma Heights, 44130",4408853087,-81.7611414,41.3804607
Teresa of Calcutta School,"86 Pocono Road, Columbus, 43235",6147861992,-83.0110222,40.1221058
Trinity Christian Academy,"3428 Hunter's Crossing Drive, Stow, 44224",3306779385,-81.4388858,41.1729114
Truth Christian School,"12457 N. Elyria Road, West Salem, 44287",4198534894,-82.107755,40.950457
Upper Room Academy,"266 Schell Road, Wilmington, 45177",9373832730,-83.93553469999999,39.52329539999999
Westside Christian Academy,"179 N. Huron Avenue, Columbus, 43204",6142787607,-83.0812871,39.9584586
AMBC Christian Academy,"2330 E. Market Street, Akron, 44312",3307332551,-81.4455543,41.0565483
Brookstone Christian School,"517 Brookstone Court, Copley, 44321",3306086185,-81.6683333,41.1206406
BSSB Academy,"4137 Branshaw Road N.W., Canton, 44718",3304911737,-81.4494855,40.8408604
Carrollton Free Academy,"290 4th Street NE, Carrollton, 44615",3304766053,-81.07979900000001,40.5746478
Central Christian Academy,"2104 W. 44th Street, Cleveland, 44113",2169616608,-81.7166627,41.4763801
Children's Planet,"10200 Hamilton Avenue, Cincinnati, 45231",5136815100,-84.5538316,39.25659150000001
"Cleaster Mims College Prep School, Inc.","7855 Dawn Road, Cincinnati, 45237",5137616609,-84.4614886,39.2068318
Collegiate Academy,"9856 McCallum Avenue, N.E., Alliance, 44601",3308213830,-81.1713261,40.91413259999999
Davis Family Academy,"3568 Millers Run Back Run Road, Lucasville, 45648",7408205768,-82.9304288,38.8954028
Discovery Montessori School,"663 Southampton Court, Copley, 44321",3308676222,-81.665672,41.119599
Eagles' View Academy,"39461 Evergreen Drive, Avon, 44011",4408973537,-82.0639308,41.4251911
"Faith Academy of Findlay, Inc.","701 Adams Street, Findlay, 45840",4194210590,-83.660364,41.039008
Freedom Christian Academy,"13758 Gilchrist Road, Mount Vernon, 43050",7403975137,-82.4080819,40.4326431
Freedom Christian School,"2628 Lenox New Lyme Road, Jefferson, 44047",2025364884,-80.76098499999999,41.679289
Garret Academy,"642 Wooster Road, North, Barberton, 44203",3307808875,-81.5946627,41.0246171
Hampshire Heights High School,"3428 Drummond, Toledo, 43606",4195363247,-83.614784,41.6831936
Heartland School,"25 N. 4th Street, Tipp City, 45371",9376671040,-84.1730635,39.9618462
Heritage Christian Academy,"4001 Rundell Drive, Dayton, 45415",9377714657,-84.2838586,39.8441423
Hillsboro Christian Academy,"8230 State Route U.S. 50 E., Hillsboro, 45133",9373938422,-83.5858999,39.2042212
Landmark Christian Academy,"912 Dayton Street, Chillicothe, 45601",7407022287,-82.9547978,39.3322151
McQuaid Christian Academy,"10249 W. Ridge Road, Elyria, 44035-6834",4403222024,-82.1523038,41.3407315
New Franklin Christian Academy,"16310 Lisbon Street S.E., Minerva, 44657",3308622491,-81.0948239,40.7978365
New Life Christian Academy,"104 W. Cole Road, Fremont, 43420",4193349809,-83.1206456,41.3213371
Northside Christian Academy,"4428 Ridge Road, Wadsworth, 44281",3303363979,-81.735107,41.1355484
Northwest Baptist Academy,"3906 W. Alexis Road, Toledo, 43623",4194758233,-83.6378773,41.72108730000001
Not So Lonesome School,"8041 Lonesome Road, Saint Paris, 43072",9376635635,-83.91107269999999,40.142584
Ray of Hope Academy,"142 Middle Street, Wellington, 44090",4409355442,-82.2233309,41.170686
Risingsun Community Christian School,"238 State Route 23, Risingsun, 43457",4194573325,-83.4194156,41.2674478
Solid Rock Christian Academy,"322 Walnut Street, Port William, 45164",9374861340,-83.7840342,39.5520789
Sovereign Grace Christian Academy,"1101 Wellfleet Drive, Grafton, 44044",4409267035,-82.061037,41.28728290000001
"Star in the East Messianic, The","2686 Easton Street N.E., Canton, 44721",3304917927,-81.3311475,40.8735528
St. Therese' Academy,"6637 West Sprague Road, North Royalton, 44133",4408424413,-81.73079419999999,41.3516754
Teleios Christian Academy,"723 E. Reno Drive, Louisville, 44641",3308751581,-81.2631861,40.85005510000001
Tree of Life Christian Academy,"5125 State Route 718, Troy, 45373",9376762100,-84.2993407,40.04020999999999
Vision Baptist Christian School,"640 Brown Road, Jackson, 45640",7402863589,-82.55996309999999,39.0744956
Wilmington Christian Academy,"2193 State Route 73 West, Wilmington, 45177",9373831319,-83.863385,39.4563022
